district_code,district_name,branch_code,name,address,address_coordinates,phone_no,opening_hours,services,business_status
central_western_district,Central & Western District,349,Central District Branch,"2A Des Voeux Road Central, Hong Kong","22.280249,114.160161",+852 2160 8888,"9:00 – 17:00,9:00 – 13:00,Closed","ATM_CENTRE,ATM_RMB,EXCHANGE,RMB,SAFE_DEPOSITBOX,SELF_SERVICE,CHEQUE_DEPOSIT,CASH_DEPOSIT_DUAL_CURRENCY,NOTES_PREORDER",
central_western_district,Central & Western District,397,Bonham Road Branch,"63 Bonham Road, Hong Kong","22.2844809,114.1409265",+852 2517 7066,"9:00 – 17:00,9:00 – 13:00,Closed","ATM_CENTRE,ATM_RMB,RMB,SAFE_DEPOSITBOX,SELF_SERVICE,CHEQUE_DEPOSIT,NOTES_PREORDER,INVESTMENT_SERVICE",
central_western_district,Central & Western District,553,Shek Tong Tsui Branch,"534 Queen's Road West,  Shek Tong Tsui, Hong Kong","22.2862301,114.1345169",+852 2819 7277,"9:00 – 17:00,9:00 – 13:00,Closed","ATM_CENTRE,ATM_RMB,RMB,INVESTMENT_SERVICE,SAFE_DEPOSITBOX,SELF_SERVICE,CHEQUE_DEPOSIT,CASH_DEPOSIT_DUAL_CURRENCY,METALS,NOTES_PREORDER",
central_western_district,Central & Western District,560,Kennedy Town Branch,"Harbour View Garden, 2-2F Catchick Street, Kennedy Town, Hong Kong","22.2835392,114.129382",+852 2818 6162,"9:00 – 17:00,9:00 – 13:00,Closed","ATM_CENTRE,ATM_RMB,RMB,INVESTMENT_SERVICE,SAFE_DEPOSITBOX,SELF_SERVICE,CHEQUE_DEPOSIT,CASH_DEPOSIT_DUAL_CURRENCY,NOTES_PREORDER",
central_western_district,Central & Western District,595,Connaught Road Central Branch,"13-14 Connaught Road Central, Hong Kong","22.282915,114.157785",+852 2841 0410,"9:00 – 17:00,9:00 – 13:00,Closed","ATM_CENTRE,RMB,INVESTMENT_SERVICE,CHEQUE_DEPOSIT,CAPTIAL_INVEST,CASH_DEPOSIT_DUAL_CURRENCY,ENRICH,WM_CENTRE,NOTES_PREORDER",
central_western_district,Central & Western District,606,Caine Road Branch,"57 Caine Road, Hong Kong","22.2808553,114.1526749",+852 2521 3318,"9:00 – 17:00,9:00 – 13:00,Closed","ATM_CENTRE,ATM_RMB,RMB,SELF_SERVICE,CHEQUE_DEPOSIT,CASH_DEPOSIT_DUAL_CURRENCY,NOTES_PREORDER",
central_western_district,Central & Western District,676,Sheung Wan Branch,"Shop 1-4 G/F & 1/F, Tung Hip Commercial Building, 244-248 Des Voeux Road Central, Hong Kong","22.286276,114.152152",+852 2541 1601,"9:00 – 17:00,9:00 – 13:00,Closed","ATM_CENTRE,ATM_RMB,EXCHANGE,RMB,INVESTMENT_SERVICE,SELF_SERVICE,CHEQUE_DEPOSIT,CAPTIAL_INVEST,CASH_DEPOSIT_DUAL_CURRENCY,WM_CENTRE,NOTES_PREORDER,ENRICH",
central_western_district,Central & Western District,551,Des Voeux Road West Branch,"111-119 Des Voeux Road West, Hong Kong","22.2878895,114.1445758",+852 2546 1134,"9:00 – 17:00,9:00 – 13:00,Closed","ATM_CENTRE,ATM_RMB,RMB,INVESTMENT_SERVICE,SELF_SERVICE,CHEQUE_DEPOSIT,CASH_DEPOSIT_DUAL_CURRENCY,NOTES_PREORDER",
central_western_district,Central & Western District,709,Gilman Street Branch,"136 Des Voeux Road Central, Hong Kong","22.2852041,114.154669",+852 2135 1123,"9:00 – 17:00,9:00 – 13:00,Closed","ATM_CENTRE,ATM_RMB,RMB,INVESTMENT_SERVICE,SAFE_DEPOSITBOX,SELF_SERVICE,CHEQUE_DEPOSIT,CASH_DEPOSIT_DUAL_CURRENCY,ENRICH,WM_CENTRE,NOTES_PREORDER",
central_western_district,Central & Western District,721,Wyndham Street Branch,"G/F, South China Building, 1-3 Wyndham Street, Central, Hong Kong","22.2812076,114.1564853",+852 2843 2888,"9:00 – 17:00,9:00 – 13:00,Closed","ATM_CENTRE,ATM_RMB,RMB,INVESTMENT_SERVICE,SELF_SERVICE,CHEQUE_DEPOSIT,CASH_DEPOSIT_DUAL_CURRENCY,WM_CENTRE,NOTES_PREORDER,ENRICH",
central_western_district,Central & Western District,746,Queen's Road Central Branch,"81-83 Queen’s Road Central, Hong Kong","22.2833787,114.1552884",+852 2588 1288,"9:00 – 17:00,9:00 – 13:00,Closed","ATM_CENTRE,ATM_RMB,RMB,INVESTMENT_SERVICE,CHEQUE_DEPOSIT,NOTES_PREORDER",
central_western_district,Central & Western District,788,Western District Branch,"386-388 Des Voeux Road West, Hong Kong","22.28681066270472,114.13728140294552",+852 2549 9828,"9:00 – 17:00,9:00 – 13:00,Closed","ATM_CENTRE,ATM_RMB,RMB,INVESTMENT_SERVICE,SELF_SERVICE,CHEQUE_DEPOSIT,CASH_DEPOSIT_DUAL_CURRENCY,NOTES_PREORDER",
central_western_district,Central & Western District,804,First Street Branch,"55A First Street, Sai Ying Pun, Hong Kong","22.2865402,114.1425311",+852 2517 3399,"9:00 – 17:00,9:00 – 13:00,Closed","ATM_CENTRE,ATM_RMB,RMB,INVESTMENT_SERVICE,SELF_SERVICE,CHEQUE_DEPOSIT,CASH_DEPOSIT_DUAL_CURRENCY,NOTES_PREORDER",
central_western_district,Central & Western District,806,United Centre Branch,"Shop 1021, United Centre, 95 Queensway, Hong Kong","22.278421,114.165361",+852 2861 1889,"9:00 – 17:00,9:00 – 13:00,Closed","ATM_CENTRE,ATM_RMB,RMB,INVESTMENT_SERVICE,CHEQUE_DEPOSIT,CAPTIAL_INVEST,WM_CENTRE,NOTES_PREORDER,CASH_DEPOSIT_DUAL_CURRENCY",
central_western_district,Central & Western District,819,Shun Tak Centre Branch,"Shop 225, 2/F, Shun Tak Centre, 200 Connaught Road Central, HK","22.288101,114.1512204",+852 2291 6081,"9:00 – 17:00,9:00 – 13:00,Closed","ATM_CENTRE,ATM_RMB,RMB,INVESTMENT_SERVICE,SELF_SERVICE,CHEQUE_DEPOSIT,CAPTIAL_INVEST,CASH_DEPOSIT_DUAL_CURRENCY,NOTES_PREORDER",
central_western_district,Central & Western District,875,Bank of China Tower Branch,"1 Garden Road, Hong Kong","22.27925,114.161572",+852 2826 6888,"9:00 – 17:00,9:00 – 13:00,Closed","ATM_CENTRE,ATM_RMB,EXCHANGE,RMB,INVESTMENT_SERVICE,SAFE_DEPOSITBOX,SELF_SERVICE,CHEQUE_DEPOSIT,CAPTIAL_INVEST,CASH_DEPOSIT_DUAL_CURRENCY,ENRICH,WM_CENTRE,METALS,NOTES_PREORDER",
central_western_district,Central & Western District,916,Central District (Wing On House) Branch,"B/F-2/F, Wing on House, 71 Des Voeux Road Central, Hong Kong","22.283852,114.1564086",+852 2843 6111,"9:00 – 17:00,9:00 – 13:00,Closed","BOCHK_ISERVICE,ATM_CENTRE,ATM_RMB,EXCHANGE,RMB,INVESTMENT_SERVICE,SAFE_DEPOSITBOX,SELF_SERVICE,CHEQUE_DEPOSIT,CAPTIAL_INVEST,CASH_DEPOSIT_DUAL_CURRENCY,METALS,NOTES_PREORDER,ENRICH",
central_western_district,Central & Western District,926,Queen's Road West (Sheung Wan) Branch,"2-12 Queen's Road West, Sheung Wan, Hong Kong (with Voice Navigation ATM Service)","22.2864297,114.1485646",+852 2815 6888,"9:00 – 17:00,9:00 – 13:00,Closed","ATM_CENTRE,ATM_RMB,RMB,INVESTMENT_SERVICE,SELF_SERVICE,CHEQUE_DEPOSIT,CASH_DEPOSIT_DUAL_CURRENCY,NOTES_PREORDER",
central_western_district,Central & Western District,,Syndicated & Acquisition Finance,address,"22.2793052,114.1614922",phone_no,"9:00 – 17:00,Closed,Closed",services,
central_western_district,Central & Western District,,Financial Institutions (Bank),address,"22.2793052,114.1614922",phone_no,"9:00 – 17:00,Closed,Closed",services,
central_western_district,Central & Western District,,Financial Institutions (Non-Bank),address,"22.2793052,114.1614922",phone_no,"9:00 – 17:00,Closed,Closed",services,
central_western_district,Central & Western District,,Commercial Business Division I,address,"22.2793052,114.1614922",phone_no,"9:00 – 17:00,Closed,Closed",services,
central_western_district,Central & Western District,,Commercial Business Division II,address,"22.2793052,114.1614922",phone_no,"9:00 – 17:00,Closed,Closed",services,
central_western_district,Central & Western District,,Hong Kong Central and West Commercial Centre,address,"22.284088,114.156635",phone_no,"9:00 – 17:00,Closed,Closed",services,
central_western_district,Central & Western District,,Public Sector,address,"22.279334,114.161450",phone_no,"9:00 – 17:00,Closed,Closed",services,
wan_chai_district,Wan Chai District,963,Happy Valley Wealth Management Centre,"Nos. 49-51A, Sing Woo Road, Happy Valley, Hong Kong","22.268552,114.186533",+852 3982 8270,"9:00 – 17:00,9:00 – 13:00,Closed","ATM_CENTRE,ATM_RMB,RMB,INVESTMENT_SERVICE,SELF_SERVICE,CHEQUE_DEPOSIT,CASH_DEPOSIT_DUAL_CURRENCY,WM_CENTRE",
wan_chai_district,Wan Chai District,611,409 Hennessy Road Branch,"409-415 Hennessy Road, Wan Chai, Hong Kong","22.279338,114.180549",+852 2835 6118,"9:00 – 17:00,9:00 – 13:00,Closed","ATM_CENTRE,ATM_RMB,EXCHANGE,RMB,INVESTMENT_SERVICE,SAFE_DEPOSITBOX,SELF_SERVICE,CHEQUE_DEPOSIT,CAPTIAL_INVEST,CASH_DEPOSIT_DUAL_CURRENCY,ENRICH,WM_CENTRE,METALS,NOTES_PREORDER",
wan_chai_district,Wan Chai District,699,Wan Chai (China Overseas Building) Branch,"139 Hennessy Road, Wan Chai, Hong Kong","22.2776532,114.172805",+852 2529 0866,"9:00 – 17:00,9:00 – 13:00,Closed","ATM_CENTRE,ATM_RMB,RMB,INVESTMENT_SERVICE,SELF_SERVICE,CHEQUE_DEPOSIT,CAPTIAL_INVEST,CASH_DEPOSIT_DUAL_CURRENCY,WM_CENTRE,NOTES_PREORDER",
wan_chai_district,Wan Chai District,873,Percival Street Branch,"18 Percival Street, Causeway Bay, Hong Kong","22.2810066,114.1824703",+852 2572 4273,"9:00 – 17:00,9:00 – 13:00,Closed","ATM_CENTRE,ATM_RMB,EXCHANGE,RMB,SECURITIES,INVESTMENT_SERVICE,SELF_SERVICE,CHEQUE_DEPOSIT,CASH_DEPOSIT_DUAL_CURRENCY,WM_CENTRE,NOTES_PREORDER",
wan_chai_district,Wan Chai District,884,Harbour Road Branch,"Shop 4, G/F, Causeway Centre, 28 Harbour Road, Wan Chai, Hong Kong","22.2798311,114.1760776",+852 2827 8407,"9:00 – 17:00,9:00 – 13:00,Closed","ATM_CENTRE,ATM_RMB,EXCHANGE,RMB,INVESTMENT_SERVICE,SELF_SERVICE,CHEQUE_DEPOSIT,CAPTIAL_INVEST,CASH_DEPOSIT_DUAL_CURRENCY,ENRICH,WM_CENTRE,NOTES_PREORDER",
wan_chai_district,Wan Chai District,899,Wan Chai (Wu Chung House) Branch,"213 Queen's Road East, Wan Chai, Hong Kong","22.2745372,114.1728407",+852 2892 0909,"9:00 – 17:00,9:00 – 13:00,Closed","ATM_CENTRE,ATM_RMB,RMB,INVESTMENT_SERVICE,SELF_SERVICE,CHEQUE_DEPOSIT,CAPTIAL_INVEST,CASH_DEPOSIT_DUAL_CURRENCY,WM_CENTRE,NOTES_PREORDER,ENRICH",
wan_chai_district,Wan Chai District,704,Johnston Road Branch,"152-158 Johnston Road, Wan Chai, Hong Kong","22.276552,114.174389",+852 2574 8257,"9:00 – 17:00,9:00 – 13:00,Closed","ATM_CENTRE,ATM_RMB,RMB,SECURITIES,INVESTMENT_SERVICE,SAFE_DEPOSITBOX,SELF_SERVICE,CHEQUE_DEPOSIT,CAPTIAL_INVEST,CASH_DEPOSIT_DUAL_CURRENCY,NOTES_PREORDER,WM_CENTRE",
wan_chai_district,Wan Chai District,828,Causeway Bay Branch,"Shop B, C & D on G/F & 1/F-3/F, Radio City, 505 Hennessy Road, Causeway Bay, Hong Kong","22.280542,114.183335",+852 3982 8068,"9:00 – 17:00,9:00 – 13:00,Closed","ATM_CENTRE,ATM_RMB,RMB,INVESTMENT_SERVICE,SELF_SERVICE,CHEQUE_DEPOSIT,CAPTIAL_INVEST,CASH_DEPOSIT_DUAL_CURRENCY,ENRICH,WM_CENTRE,NOTES_PREORDER,EXCHANGE",
wan_chai_district,Wan Chai District,583,Happy Valley Branch,"11 King Kwong Street, Happy Valley, Hong Kong","22.268921,114.185223",+852 2838 6668,"9:00 – 17:00,9:00 – 13:00,Closed","ATM_CENTRE,ATM_RMB,RMB,SAFE_DEPOSITBOX,ENRICH,NOTES_PREORDER",
wan_chai_district,Wan Chai District,932,Jardine's Bazaar Branch,"G/F, Siki Centre, No.23 Jardine's Bazaar, Causeway Bay, Hong Kong","22.279608,114.185114",+852 2882 1383,"9:00 – 17:00,9:00 – 13:00,Closed","ATM_CENTRE,ATM_RMB,RMB,SELF_SERVICE,CHEQUE_DEPOSIT,CASH_DEPOSIT_DUAL_CURRENCY,NOTES_PREORDER,INVESTMENT_SERVICE",
wan_chai_district,Wan Chai District,820,Leighton Road Branch,"Shop A & B, G/F, First Commercial Building, 33-35 Leighton Road, Causeway Bay, Hong Kong","22.277174,114.1819011",+852 3556 9100,"9:00 – 17:00,9:00 – 13:00,Closed","ATM_CENTRE,ATM_RMB,RMB,SELF_SERVICE,CHEQUE_DEPOSIT,CASH_DEPOSIT_DUAL_CURRENCY,INVESTMENT_SERVICE,NOTES_PREORDER,ENRICH,EXCHANGE",
eastern_district,Eastern District,390,Heng Fa Chuen Branch,"Shop 205-208, East Wing Shopping Ctr, Heng Fa Chuen, Chai Wan, HK","22.277675,114.2395195",+852 2897 1131,"9:00 – 17:00,9:00 – 13:00,Closed","ATM_CENTRE,ATM_RMB,RMB,INVESTMENT_SERVICE,SAFE_DEPOSITBOX,SELF_SERVICE,CHEQUE_DEPOSIT,CASH_DEPOSIT_DUAL_CURRENCY,NOTES_PREORDER",
eastern_district,Eastern District,399,North Point (Hang Ying Building) Branch,"Shop B1, 318-328 King' s Road, North Point, Hong Kong","22.290118916372773,114.19621556997299",+852 2887 1199,"9:00 – 17:00,9:00 – 13:00,Closed","ATM_CENTRE,ATM_RMB,RMB,INVESTMENT_SERVICE,SELF_SERVICE,CHEQUE_DEPOSIT,CASH_DEPOSIT_DUAL_CURRENCY,NOTES_PREORDER",
eastern_district,Eastern District,574,Quarry Bay Branch,"Parkvale, 1060 King's Road, Quarry Bay, Hong Kong","22.2845867,114.2133736",+852 2564 0333,"9:00 – 17:00,9:00 – 13:00,Closed","ATM_CENTRE,ATM_RMB,RMB,ENRICH,INVESTMENT_SERVICE,SAFE_DEPOSITBOX,SELF_SERVICE,CHEQUE_DEPOSIT,CASH_DEPOSIT_DUAL_CURRENCY,WM_CENTRE,NOTES_PREORDER",
eastern_district,Eastern District,592,Sai Wan Ho Branch,"142-146 Shau Kei Wan Road, Sai Wan Ho, Hong Kong","22.2811483,114.2226749",+852 2886 3344,"9:00 – 17:00,9:00 – 13:00,Closed","ATM_CENTRE,ATM_RMB,RMB,INVESTMENT_SERVICE,SELF_SERVICE,CHEQUE_DEPOSIT,CASH_DEPOSIT_DUAL_CURRENCY,ENRICH,WM_CENTRE,NOTES_PREORDER",
eastern_district,Eastern District,594,Lee Chung Street Branch,"29-31 Lee Chung Street, Chai Wan, Hong Kong.","22.2657514,114.2359625",+852 2557 3283,"9:00 – 17:00,9:00 – 13:00,Closed","ATM_CENTRE,ATM_RMB,EXCHANGE,RMB,ENRICH,INVESTMENT_SERVICE,SELF_SERVICE,CHEQUE_DEPOSIT,CASH_DEPOSIT_DUAL_CURRENCY,NOTES_PREORDER",
eastern_district,Eastern District,720,Sheung On Street Branch,"77 Sheung On Street, Chai Wan, Hong Kong","22.2674931,114.243502",+852 2897 0923,"9:00 – 17:00,9:00 – 13:00,Closed","ATM_CENTRE,ATM_RMB,RMB,SELF_SERVICE,CHEQUE_DEPOSIT,CASH_DEPOSIT_DUAL_CURRENCY,NOTES_PREORDER",
eastern_district,Eastern District,737,King's Road Branch,"131-133 King's Road, North Point, Hong Kong","22.2876806,114.1929691",+852 2887 0282,"9:00 – 17:00,9:00 – 13:00,Closed","ATM_CENTRE,ATM_RMB,EXCHANGE,RMB,ENRICH,INVESTMENT_SERVICE,SELF_SERVICE,CHEQUE_DEPOSIT,CAPTIAL_INVEST,CASH_DEPOSIT_DUAL_CURRENCY,WM_CENTRE,NOTES_PREORDER",
eastern_district,Eastern District,787,Healthy Village Branch,"Shop 1&2, Healthy Village Phase II, 668 King's Rd, North Point, HK","22.2919531,114.2062597",+852 2563 2278,"9:00 – 17:00,9:00 – 13:00,Closed","ATM_CENTRE,ATM_RMB,RMB,INVESTMENT_SERVICE,SELF_SERVICE,CHEQUE_DEPOSIT,CASH_DEPOSIT_DUAL_CURRENCY,NOTES_PREORDER",
eastern_district,Eastern District,789,Chai Wan Branch,"Block B, Walton Estate, 341-343 Chai Wan Road, Chai Wan, Hong Kong","22.263987,114.2392275",+852 2558 6433,"9:00 – 17:00,9:00 – 13:00,Closed","ATM_CENTRE,ATM_RMB,RMB,INVESTMENT_SERVICE,SELF_SERVICE,CHEQUE_DEPOSIT,CASH_DEPOSIT_DUAL_CURRENCY,WM_CENTRE,METALS,NOTES_PREORDER,ENRICH",
eastern_district,Eastern District,810,Siu Sai Wan Branch,"Shop 19, Cheerful Garden, Siu Sai Wan, Hong Kong","22.2627311,114.2509844",+852 2505 2399,"9:00 – 17:00,9:00 – 13:00,Closed","ATM_CENTRE,ATM_RMB,RMB,INVESTMENT_SERVICE,CHEQUE_DEPOSIT,NOTES_PREORDER",
eastern_district,Eastern District,832,Aldrich Garden  Branch,"Shop 58, Aldrich Garden, Shau Kei Wan, Hong Kong","22.2801139,114.2281781",+852 3196 4956,"9:00 – 17:00,9:00 – 13:00,Closed","ATM_CENTRE,ATM_RMB,RMB,SECURITIES,INVESTMENT_SERVICE,CHEQUE_DEPOSIT,NOTES_PREORDER",
eastern_district,Eastern District,882,Kam Wa Street Branch,"3 Kam Wa Street, Shau Kei Wan, Hong Kong","22.2779651,114.2302779",+852 2885 9311,"9:00 – 17:00,9:00 – 13:00,Closed","ATM_CENTRE,ATM_RMB,RMB,SECURITIES,INVESTMENT_SERVICE,CHEQUE_DEPOSIT,CASH_DEPOSIT_DUAL_CURRENCY,ENRICH,NOTES_PREORDER",
eastern_district,Eastern District,886,City Garden Branch,"233 Electric Road, North Point, Hong Kong","22.29075921449037,114.19449627399445",+852 2571 2878,"9:00 – 17:00,9:00 – 13:00,Closed","ATM_CENTRE,ATM_RMB,RMB,INVESTMENT_SERVICE,SELF_SERVICE,CHEQUE_DEPOSIT,CASH_DEPOSIT_DUAL_CURRENCY,NOTES_PREORDER",
eastern_district,Eastern District,888,Taikoo Shing Branch,"Shop P1025-1026 , Chi Sing Mansion, Taikoo Shing, HK","22.286204,114.2186012",+852 2967 9128,"9:00 – 17:00,9:00 – 13:00,Closed","ATM_CENTRE,ATM_RMB,EXCHANGE,RMB,INVESTMENT_SERVICE,SELF_SERVICE,CHEQUE_DEPOSIT,CAPTIAL_INVEST,CASH_DEPOSIT_DUAL_CURRENCY,ENRICH,WM_CENTRE,METALS,NOTES_PREORDER",
eastern_district,Eastern District,891,North Point Branch,"Shop B & C, G/F, King's Towers, 480 King's Road, North Point, Hong Kong","22.291197,114.201019",+852 2811 8880,"9:00 – 17:00,9:00 – 13:00,Closed","ATM_CENTRE,ATM_RMB,RMB,INVESTMENT_SERVICE,CHEQUE_DEPOSIT,CASH_DEPOSIT_DUAL_CURRENCY,NOTES_PREORDER,SELF_SERVICE,ENRICH,CAPTIAL_INVEST,EXCHANGE,METALS",
eastern_district,Eastern District,919,Shau Kei Wan (Po Man Building) Branch,"260-262 Shau Kei Wan Road, Shau Kei Wan, Hong Kong","22.2803379,114.2246653",+852 3550 5000,"9:00 – 17:00,9:00 – 13:00,Closed","ATM_CENTRE,ATM_RMB,EXCHANGE,RMB,SECURITIES,INVESTMENT_SERVICE,SAFE_DEPOSITBOX,SELF_SERVICE,CHEQUE_DEPOSIT,CASH_DEPOSIT_DUAL_CURRENCY,METALS,NOTES_PREORDER",
eastern_district,Eastern District,925,North Point (King's Centre) Branch,"193-209 King's Road, North Point, Hong Kong","22.28943828618466,114.19420726597309",+852 2286 2000,"9:00 – 17:00,9:00 – 13:00,Closed","ATM_CENTRE,ATM_RMB,RMB,SECURITIES,INVESTMENT_SERVICE,SAFE_DEPOSITBOX,SELF_SERVICE,CHEQUE_DEPOSIT,CAPTIAL_INVEST,CASH_DEPOSIT_DUAL_CURRENCY,METALS,NOTES_PREORDER",
eastern_district,Eastern District,940,Chai Wan Branch Safe Box Service Centre,"27 Gold Mine Building, 345 Chai Wan Road, Chai Wan, Hong Kong","22.2644215,114.240442",+852 2557 0248,"9:00 – 17:00,9:00 – 13:00,Closed","SECURITIES,SAFE_DEPOSITBOX",
eastern_district,Eastern District,941,Taikoo Shing Branch Safe Box Service Centre,"Shop G1006, Hoi Shing Mansion, Taikoo Shing, Hong Kong","22.2862041,114.2186425",+852 2885 4582,"9:00 – 17:00,9:00 – 13:00,Closed",SAFE_DEPOSITBOX,
eastern_district,Eastern District,,Hong Kong East Commercial Centre,address,"22.2868418,114.2107684",phone_no,"9:00 – 17:00,Closed,Closed",services,
eastern_district,Eastern District,962,North Point Wealth Management Centre,"Shop 5B , G/F, Roca Centre, 460-470 King's Road, North Point, Hong Kong","22.291105,114.200661",+852 2160 7988,"9:00 – 17:00,9:00 – 13:00,Closed","ATM_CENTRE,ATM_RMB,RMB,INVESTMENT_SERVICE,CAPTIAL_INVEST,WM_CENTRE",
southern_district,Southern District,706,Aberdeen Branch,"25 Wu Pak Street, Aberdeen, Hong Kong","22.2481767,114.1550356",+852 2553 4165,"9:00 – 17:00,9:00 – 13:00,Closed","ATM_CENTRE,ATM_RMB,EXCHANGE,RMB,INVESTMENT_SERVICE,SAFE_DEPOSITBOX,SELF_SERVICE,CHEQUE_DEPOSIT,CASH_DEPOSIT_DUAL_CURRENCY,WM_CENTRE,METALS,NOTES_PREORDER,ENRICH",
southern_district,Southern District,711,Ap Lei Chau Branch,"13-15 Wai Fung Street, Ap Lei Chau, Hong Kong","22.2441922,114.1565771",+852 2554 6487,"9:00 – 17:00,9:00 – 13:00,Closed","ATM_CENTRE,ATM_RMB,RMB,SELF_SERVICE,CHEQUE_DEPOSIT,CASH_DEPOSIT_DUAL_CURRENCY,NOTES_PREORDER",
southern_district,Southern District,713,Tin Wan Branch,"2-12 Ka Wo Street, Tin Wan, Hong Kong","22.2496827,114.148904",+852 2553 0135,"9:00 – 17:00,9:00 – 13:00,Closed","ATM_CENTRE,ATM_RMB,RMB,SELF_SERVICE,CHEQUE_DEPOSIT,CASH_DEPOSIT_DUAL_CURRENCY,NOTES_PREORDER",
southern_district,Southern District,808,South Horizons Branch,"Shop G13 & G15, G/F, Marina Square, West Commercial Block, South Horizons, Ap Lei Chau, Hong Kong","22.243666,114.146845",+852 2580 0345,"9:00 – 17:00,9:00 – 13:00,Closed","ATM_CENTRE,ATM_RMB,RMB,INVESTMENT_SERVICE,SELF_SERVICE,CHEQUE_DEPOSIT,CASH_DEPOSIT_DUAL_CURRENCY,WM_CENTRE,NOTES_PREORDER,ENRICH",
southern_district,Southern District,812,Chi Fu Landmark Branch,"Shop 510, Chi Fu Landmark, Pok Fu Lam, Hong Kong","22.257917,114.138883",+852 2551 2282,"9:00 – 17:00,9:00 – 13:00,Closed","ATM_CENTRE,ATM_RMB,RMB,INVESTMENT_SERVICE,SELF_SERVICE,CHEQUE_DEPOSIT,CASH_DEPOSIT_DUAL_CURRENCY,NOTES_PREORDER",
southern_district,Southern District,933,Stanley Branch,"Shop No.301B, Stanley Plaza, Hong Kong","22.219544079024516,114.20982241630554",+852 3982 8188,"9:00 – 17:00,9:00 – 13:00,Closed","ATM_CENTRE,ATM_RMB,EXCHANGE,RMB,INVESTMENT_SERVICE,SELF_SERVICE,CHEQUE_DEPOSIT,CASH_DEPOSIT_DUAL_CURRENCY,WM_CENTRE,NOTES_PREORDER",
southern_district,Southern District,936,South Horizons Branch Safe Box Service Centre,"Shop 118, Marina Square East Centre, Ap Lei Chau, Hong Kong","22.243444,114.148543",+852 2555 7477,"9:00 – 17:00,9:00 – 13:00,Closed",SAFE_DEPOSITBOX,
yau_tsim_mong_district,Yau Tsim Mong District,351,Prince Edward Branch,"774 Nathan Road, Kowloon","22.325211,114.1682503",+852 2399 3000,"9:00 – 17:00,9:00 – 13:00,Closed","ATM_CENTRE,ATM_RMB,EXCHANGE,RMB,INVESTMENT_SERVICE,SAFE_DEPOSITBOX,SELF_SERVICE,CHEQUE_DEPOSIT,CAPTIAL_INVEST,CASH_DEPOSIT_DUAL_CURRENCY,WM_CENTRE,METALS,NOTES_PREORDER",
yau_tsim_mong_district,Yau Tsim Mong District,363,Fuk Tsun Street Branch,"32-40 Fuk Tsun Street, Tai Kok Tsui, Kowloon","22.3212951,114.1642719",+852 2391 8468,"9:00 – 17:00,9:00 – 13:00,Closed","ATM_CENTRE,ATM_RMB,RMB,INVESTMENT_SERVICE,SELF_SERVICE,CHEQUE_DEPOSIT,CASH_DEPOSIT_DUAL_CURRENCY,NOTES_PREORDER",
yau_tsim_mong_district,Yau Tsim Mong District,394,Humphrey's Avenue Branch,"4-4A Humphrey's Avenue, Tsim Sha Tsui, Kowloon","22.2981631,114.1726582",+852 2311 3822,"9:00 – 17:00,9:00 – 13:00,Closed","ATM_CENTRE,ATM_RMB,RMB,INVESTMENT_SERVICE,CHEQUE_DEPOSIT,CAPTIAL_INVEST,WM_CENTRE,NOTES_PREORDER,EXCHANGE",
yau_tsim_mong_district,Yau Tsim Mong District,561,Mong Kok (Silvercorp Int'l Tower) Branch,"Shop B, 707-713 Nathan Road, Mong Kok, Kowloon","22.32054410347764,114.16894018650055",+852 2391 6677,"9:00 – 17:00,9:00 – 13:00,Closed","ATM_CENTRE,ATM_RMB,RMB,INVESTMENT_SERVICE,CHEQUE_DEPOSIT,CAPTIAL_INVEST,CASH_DEPOSIT_DUAL_CURRENCY,NOTES_PREORDER",
yau_tsim_mong_district,Yau Tsim Mong District,581,Jordan Road Branch,"1/F, Sino Cheer Plaza, 23-29 Jordan Road, Kowloon","22.3054987,114.1706548",+852 2730 0883,"9:00 – 17:00,9:00 – 13:00,Closed","ATM_CENTRE,ATM_RMB,RMB,INVESTMENT_SERVICE,SELF_SERVICE,CHEQUE_DEPOSIT,CAPTIAL_INVEST,CASH_DEPOSIT_DUAL_CURRENCY,WM_CENTRE,NOTES_PREORDER,METALS",
yau_tsim_mong_district,Yau Tsim Mong District,586,Mong Kok Branch,"589 Nathan Road, Mong Kok, Kowloon","22.3157722,114.1699893",+852 2332 0111,"9:00 – 17:00,9:00 – 13:00,Closed","ATM_CENTRE,ATM_RMB,EXCHANGE,RMB,INVESTMENT_SERVICE,SAFE_DEPOSITBOX,SELF_SERVICE,CHEQUE_DEPOSIT,CAPTIAL_INVEST,CASH_DEPOSIT_DUAL_CURRENCY,ENRICH,WM_CENTRE,METALS,NOTES_PREORDER",
yau_tsim_mong_district,Yau Tsim Mong District,663,Prince Edward Road West (Mong Kok) Branch,"116-118 Prince Edward Road West, Mong Kok, Kowloon","22.324465,114.168068",+852 2928 4138,"9:00 – 17:00,9:00 – 13:00,Closed","ATM_CENTRE,ATM_RMB,RMB,INVESTMENT_SERVICE,SELF_SERVICE,CHEQUE_DEPOSIT,CASH_DEPOSIT_DUAL_CURRENCY,WM_CENTRE,NOTES_PREORDER",
yau_tsim_mong_district,Yau Tsim Mong District,677,Tsim Sha Tsui Branch,"24-28 Carnarvon Road, Tsim Sha Tsui, Kowloon","22.299577,114.173312",+852 2721 6242,"9:00 – 17:00,9:00 – 13:00,Closed","ATM_CENTRE,ATM_RMB,EXCHANGE,RMB,INVESTMENT_SERVICE,SELF_SERVICE,CHEQUE_DEPOSIT,CASH_DEPOSIT_DUAL_CURRENCY,ENRICH,METALS,NOTES_PREORDER,CAPTIAL_INVEST",
yau_tsim_mong_district,Yau Tsim Mong District,678,Shanghai Street (Prince Edward) Branch,"689-693 Shanghai Street, Mong Kok, Kowloon","22.3225649,114.1673973",+852 2391 0502,"9:00 – 17:00,9:00 – 13:00,Closed","ATM_CENTRE,ATM_RMB,RMB,CHEQUE_DEPOSIT,CASH_DEPOSIT_DUAL_CURRENCY,NOTES_PREORDER",
yau_tsim_mong_district,Yau Tsim Mong District,680,Tai Kok Tsui Branch,"73-77 Tai Kok Tsui Road, Tai Kok Tsui, Kowloon","22.3203,114.1618055",+852 2395 3269,"9:00 – 17:00,9:00 – 13:00,Closed","ATM_CENTRE,ATM_RMB,RMB,SECURITIES,INVESTMENT_SERVICE,SELF_SERVICE,CHEQUE_DEPOSIT,CASH_DEPOSIT_DUAL_CURRENCY,ENRICH,NOTES_PREORDER",
yau_tsim_mong_district,Yau Tsim Mong District,687,China Hong Kong City Branch,"Shop 19-20, 2/F, China Hong Kong City, 33 Canton Road, Tsim Sha Tsui , Kowloon","22.300477,114.1681502",+852 2367 6164,"9:00 – 17:00,9:00 – 13:00,Closed","ATM_CENTRE,ATM_RMB,RMB,INVESTMENT_SERVICE,SELF_SERVICE,CHEQUE_DEPOSIT,CAPTIAL_INVEST,CASH_DEPOSIT_DUAL_CURRENCY,NOTES_PREORDER,EXCHANGE",
yau_tsim_mong_district,Yau Tsim Mong District,724,Jordan Branch,"328-330 Nathan Road, Kowloon","22.30667,114.1715893",+852 2928 6111,"9:00 – 17:00,9:00 – 13:00,Closed","ATM_CENTRE,ATM_RMB,EXCHANGE,RMB,SELF_SERVICE,CHEQUE_DEPOSIT,CASH_DEPOSIT_DUAL_CURRENCY,ENRICH,NOTES_PREORDER",
yau_tsim_mong_district,Yau Tsim Mong District,754,Mong Kok Road Branch,"50-52 Mong Kok Road, Mong Kok, Kowloon","22.3212348,114.1709626",+852 2395 3263,"9:00 – 17:00,9:00 – 13:00,Closed","ATM_CENTRE,ATM_RMB,RMB,INVESTMENT_SERVICE,CHEQUE_DEPOSIT,CASH_DEPOSIT_DUAL_CURRENCY,NOTES_PREORDER",
yau_tsim_mong_district,Yau Tsim Mong District,818,Olympian City Branch,"Shop 133, 1/F, Olympian City 2, 18 Hoi Ting Road, Kowloon","22.315719,114.162283",+852 2749 2110,"9:00 – 17:00,9:00 – 13:00,Closed","ATM_CENTRE,ATM_RMB,RMB,INVESTMENT_SERVICE,SELF_SERVICE,CHEQUE_DEPOSIT,CAPTIAL_INVEST,CASH_DEPOSIT_DUAL_CURRENCY,WM_CENTRE,NOTES_PREORDER",
yau_tsim_mong_district,Yau Tsim Mong District,878,Yau Ma Tei Branch,"471 Nathan Road, Yau Ma Tei, Kowloon","22.3109025,114.1708514",+852 2780 2307,"9:00 – 17:00,9:00 – 13:00,Closed","ATM_CENTRE,ATM_RMB,EXCHANGE,RMB,INVESTMENT_SERVICE,SAFE_DEPOSITBOX,SELF_SERVICE,CHEQUE_DEPOSIT,CAPTIAL_INVEST,CASH_DEPOSIT_DUAL_CURRENCY,WM_CENTRE,METALS,NOTES_PREORDER",
yau_tsim_mong_district,Yau Tsim Mong District,883,Tsim Sha Tsui East Branch,"Shop 3, LG/F, Hilton Towers, 96 Granville Road,Tsim Sha Tsui East, Kowloon","22.299504,114.1768041",+852 2739 0308,"9:00 – 17:00,9:00 – 13:00,Closed","ATM_CENTRE,ATM_RMB,EXCHANGE,RMB,INVESTMENT_SERVICE,SELF_SERVICE,CHEQUE_DEPOSIT,CAPTIAL_INVEST,CASH_DEPOSIT_DUAL_CURRENCY,ENRICH,WM_CENTRE,NOTES_PREORDER",
yau_tsim_mong_district,Yau Tsim Mong District,917,Shanghai Street (Mong Kok) Branch,"611-617 Shanghai Street, Mong Kok, Kowloon","22.3193115,114.1680673",+852 2394 4181,"9:00 – 17:00,9:00 – 13:00,Closed","ATM_CENTRE,ATM_RMB,EXCHANGE,RMB,INVESTMENT_SERVICE,SELF_SERVICE,CHEQUE_DEPOSIT,CAPTIAL_INVEST,CASH_DEPOSIT_DUAL_CURRENCY,WM_CENTRE,NOTES_PREORDER",
yau_tsim_mong_district,Yau Tsim Mong District,874,Mong Kok (President Commercial Centre) Branch,"608 Nathan Road, Mong Kok, Kowloon","22.316565,114.1700596",+852 2384 7191,"9:00 – 17:00,9:00 – 13:00,Closed","ATM_CENTRE,ATM_RMB,RMB,SECURITIES,INVESTMENT_SERVICE,SELF_SERVICE,CHEQUE_DEPOSIT,CAPTIAL_INVEST,CASH_DEPOSIT_DUAL_CURRENCY,ENRICH,WM_CENTRE,NOTES_PREORDER,EXCHANGE",
yau_tsim_mong_district,Yau Tsim Mong District,935,Cameron Road Wealth Management Centre,"30 Cameron Road, Tsim Sha Tsui, Kowloon","22.298987,114.174490",+852 2312 0010,"9:00 – 17:00,9:00 – 13:00,Closed","ATM_CENTRE,ATM_RMB,INVESTMENT_SERVICE,SELF_SERVICE,CAPTIAL_INVEST,CASH_DEPOSIT_DUAL_CURRENCY,WM_CENTRE",
yau_tsim_mong_district,Yau Tsim Mong District,,Kowloon West Commercial Centre,address,"22.3157548,114.16985649999992",phone_no,"9:00 – 17:00,Closed,Closed",services,
yau_tsim_mong_district,Yau Tsim Mong District,,Trade Product,address,"22.317947,114.158942",phone_no,"9:00 – 17:00,Closed,Closed",services,
yau_tsim_mong_district,Yau Tsim Mong District,968,Canton Road Wealth Management Centre,"60 Canton Road, Tsim Sha Tsui, Kowloon","22.298280,114.168759",+852 2730 0688,"9:00 – 17:00,9:00 – 13:00,Closed","ATM_CENTRE,ATM_RMB,CASH_DEPOSIT_DUAL_CURRENCY,RMB,SELF_SERVICE,INVESTMENT_SERVICE,CAPTIAL_INVEST,WM_CENTRE",
yau_tsim_mong_district,Yau Tsim Mong District,,Kowloon South Commercial Centre,address,"22.298676,114.167842",phone_no,"9:00 – 17:00,Closed,Closed",services,
kowloon_city_district,Kowloon City District,354,Pak Tai Street Branch,"4-6 Pak Tai Street, To Kwa Wan, Kowloon","22.3202439,114.1879308",+852 2760 7773,"9:00 – 17:00,9:00 – 13:00,Closed","ATM_CENTRE,ATM_RMB,RMB,ENRICH,INVESTMENT_SERVICE,SELF_SERVICE,CHEQUE_DEPOSIT,CASH_DEPOSIT_DUAL_CURRENCY,NOTES_PREORDER",
kowloon_city_district,Kowloon City District,554,Waterloo Road Branch,"Shop A2, Man Kee Mansion, 86 Waterloo Road, Kowloon","22.3200882,114.1767814",+852 2363 9231,"9:00 – 17:00,9:00 – 13:00,Closed","ATM_CENTRE,ATM_RMB,RMB,INVESTMENT_SERVICE,CHEQUE_DEPOSIT,ENRICH,NOTES_PREORDER",
kowloon_city_district,Kowloon City District,589,Nga Tsin Wai Road Branch,"25 Nga Tsin Wai Road,  Kowloon City, Kowloon.","22.328759870044628,114.18966829776764",+852 2383 2316,"9:00 – 17:00,9:00 – 13:00,Closed","ATM_CENTRE,ATM_RMB,RMB,INVESTMENT_SERVICE,SELF_SERVICE,CASH_DEPOSIT_DUAL_CURRENCY,NOTES_PREORDER",
kowloon_city_district,Kowloon City District,643,Prince Edward Road (Kowloon City) Branch,"382-384 Prince Edward Road, Kowloon City, Kowloon","22.3276356,114.1884391",+852 2926 6038,"9:00 – 17:00,9:00 – 13:00,Closed","ATM_CENTRE,ATM_RMB,RMB,SECURITIES,SAFE_DEPOSITBOX,SELF_SERVICE,CHEQUE_DEPOSIT,CASH_DEPOSIT_DUAL_CURRENCY,NOTES_PREORDER,INVESTMENT_SERVICE",
kowloon_city_district,Kowloon City District,662,Ma Tau Wai Road Branch,"47-49 Ma Tau Wai Road, Hung Hom, Kowloon","22.3113195,114.1877229",+852 2926 5123,"9:00 – 17:00,9:00 – 13:00,Closed","ATM_CENTRE,ATM_RMB,RMB,INVESTMENT_SERVICE,SAFE_DEPOSITBOX,SELF_SERVICE,CHEQUE_DEPOSIT,CASH_DEPOSIT_DUAL_CURRENCY,METALS,NOTES_PREORDER",
kowloon_city_district,Kowloon City District,681,Ma Tau Kok Road Branch,"39-45 Ma Tau Kok Road, To Kwa Wan, Kowloon","22.3218812,114.1898927",+852 2714 9118,"9:00 – 17:00,9:00 – 13:00,Closed","ATM_CENTRE,ATM_RMB,RMB,INVESTMENT_SERVICE,SAFE_DEPOSITBOX,SELF_SERVICE,CHEQUE_DEPOSIT,CASH_DEPOSIT_DUAL_CURRENCY,ENRICH,NOTES_PREORDER",
kowloon_city_district,Kowloon City District,697,Site 11 Whampoa Garden Branch,"Shop G6, Site 11 Whampoa Garden, Hung Hom, Kowloon","22.305643,114.18991",+852 2363 3982,"9:00 – 17:00,9:00 – 13:00,Closed","ATM_CENTRE,ATM_RMB,RMB,INVESTMENT_SERVICE,SELF_SERVICE,CHEQUE_DEPOSIT,CASH_DEPOSIT_DUAL_CURRENCY,ENRICH,WM_CENTRE,NOTES_PREORDER",
kowloon_city_district,Kowloon City District,791,Hung Hom (Eldex Industrial Building) Branch,"21 Ma Tau Wai Road, Hung Hom, Kowloon","22.3082292,114.1876664",+852 2764 8363,"9:00 – 17:00,9:00 – 13:00,Closed","ATM_CENTRE,ATM_RMB,EXCHANGE,RMB,SECURITIES,INVESTMENT_SERVICE,SELF_SERVICE,CHEQUE_DEPOSIT,CASH_DEPOSIT_DUAL_CURRENCY,NOTES_PREORDER",
kowloon_city_district,Kowloon City District,811,OUHK Branch,"The OUHK, 30 Good Shepherd St, Ho Man Tin, KLN","22.316144,114.180341",+852 2760 9099,"9:00 – 17:00,9:00 – 13:00,Closed","ATM_CENTRE,ATM_RMB,RMB,INVESTMENT_SERVICE,SELF_SERVICE,CHEQUE_DEPOSIT,CASH_DEPOSIT_DUAL_CURRENCY,NOTES_PREORDER",
kowloon_city_district,Kowloon City District,816,Festival Walk Branch,"Unit LG256, Festival Walk, Kowloon Tong, Kowloon","22.337135,114.174808",+852 2265 7288,"9:00 – 17:00,9:00 – 13:00,Closed","ATM_CENTRE,ATM_RMB,EXCHANGE,RMB,INVESTMENT_SERVICE,SELF_SERVICE,CHEQUE_DEPOSIT,CAPTIAL_INVEST,CASH_DEPOSIT_DUAL_CURRENCY,ENRICH,WM_CENTRE,NOTES_PREORDER",
kowloon_city_district,Kowloon City District,861,Hung Hom Wealth Management Centre,"37-39  Ma Tau Wai Road, Hung Hom, Kowloon","22.31002,114.1877097",+852 2170 0888,"9:00 – 17:00,9:00 – 13:00,Closed","ATM_CENTRE,ATM_RMB,INVESTMENT_SERVICE,SELF_SERVICE,CHEQUE_DEPOSIT,CASH_DEPOSIT_DUAL_CURRENCY,WM_CENTRE",
kowloon_city_district,Kowloon City District,890,Whampoa Garden Branch,"Shop G8B, Site 1, Whampoa Garden, Hung Hom, Kowloon","22.3050785,114.188322",+852 2764 7233,"9:00 – 17:00,9:00 – 13:00,Closed","ATM_CENTRE,ATM_RMB,RMB,INVESTMENT_SERVICE,SAFE_DEPOSITBOX,SELF_SERVICE,CHEQUE_DEPOSIT,CAPTIAL_INVEST,CASH_DEPOSIT_DUAL_CURRENCY,ENRICH,WM_CENTRE,NOTES_PREORDER",
kowloon_city_district,Kowloon City District,918,To Kwa Wan Branch,"80N To Kwa Wan Road, To Kwa Wan, Kowloon","22.3178463,114.1904224",+852 2364 4344,"9:00 – 17:00,9:00 – 13:00,Closed","ATM_CENTRE,ATM_RMB,EXCHANGE,RMB,SECURITIES,INVESTMENT_SERVICE,SAFE_DEPOSITBOX,SELF_SERVICE,CHEQUE_DEPOSIT,CAPTIAL_INVEST,CASH_DEPOSIT_DUAL_CURRENCY,ENRICH,WM_CENTRE,METALS,NOTES_PREORDER",
kowloon_city_district,Kowloon City District,961,Whampoa Wealth Management Centre,"Shops A1-A2 & G1, G/F, Block A-E Whampoa Estate, Nos. 1-15 Tak Man Street , Hung Hom, Kowloon","22.306576,114.187436",+852 3553 7833,"9:00 – 17:00,9:00 – 13:00,Closed","ATM_CENTRE,ATM_RMB,INVESTMENT_SERVICE,SELF_SERVICE,CHEQUE_DEPOSIT,CASH_DEPOSIT_DUAL_CURRENCY,WM_CENTRE",
sham_shui_po_district,Sham Shui Po District,352,194 Cheung Sha Wan Road Branch,"194-196 Cheung Sha Wan Road, Sham Shui Po, Kowloon (with Voice Navigation ATM Service)","22.330662856665082,114.16272014379501",+852 2728 9389,"9:00 – 17:00,9:00 – 13:00,Closed","ATM_CENTRE,ATM_RMB,EXCHANGE,RMB,SECURITIES,INVESTMENT_SERVICE,SAFE_DEPOSITBOX,SELF_SERVICE,CHEQUE_DEPOSIT,CAPTIAL_INVEST,CASH_DEPOSIT_DUAL_CURRENCY,ENRICH,WM_CENTRE,NOTES_PREORDER",
sham_shui_po_district,Sham Shui Po District,389,Lei Cheng Uk Estate Branch,"Shop 108, Lei Cheng Uk Commercial Centre, Lei Cheng Uk Estate, Kowloon","22.338538,114.158465",+852 2729 8251,"9:00 – 17:00,9:00 – 13:00,Closed","ATM_CENTRE,ATM_RMB,RMB,SAFE_DEPOSITBOX,SELF_SERVICE,CHEQUE_DEPOSIT,CASH_DEPOSIT_DUAL_CURRENCY,NOTES_PREORDER,INVESTMENT_SERVICE",
sham_shui_po_district,Sham Shui Po District,552,Sham Shui Po Branch,"207-211 Nam Cheong Street, Sham Shui Po, Kowloon","22.331698,114.1654591",+852 2777 0171,"9:00 – 17:00,9:00 – 13:00,Closed","ATM_CENTRE,ATM_RMB,RMB,SECURITIES,INVESTMENT_SERVICE,SAFE_DEPOSITBOX,SELF_SERVICE,CHEQUE_DEPOSIT,CASH_DEPOSIT_DUAL_CURRENCY,METALS,NOTES_PREORDER",
sham_shui_po_district,Sham Shui Po District,566,Mei Foo Mount Sterling Mall Branch,"Shop N47-49, G/F, Mount Sterling Mall, Mei Foo Sun Chuen, Kowloon","22.337734,114.140080",+852 2742 6611,"9:00 – 17:00,9:00 – 13:00,Closed","ATM_CENTRE,ATM_RMB,EXCHANGE,RMB,INVESTMENT_SERVICE,SAFE_DEPOSITBOX,SELF_SERVICE,CHEQUE_DEPOSIT,CASH_DEPOSIT_DUAL_CURRENCY,ENRICH,NOTES_PREORDER,CAPTIAL_INVEST,SECURITIES",
sham_shui_po_district,Sham Shui Po District,650,223 Nam Cheong Street Branch,"223 Nam Cheong Street, Sham Shui Po, Kowloon","22.3339521,114.1674579",+852 2928 2088,"9:00 – 17:00,9:00 – 13:00,Closed","ATM_CENTRE,ATM_RMB,RMB,SECURITIES,INVESTMENT_SERVICE,SAFE_DEPOSITBOX,CHEQUE_DEPOSIT,NOTES_PREORDER",
sham_shui_po_district,Sham Shui Po District,740,Cheung Sha Wan Plaza Branch,"Shop G08, Cheung Sha Wan Plaza, 833 Cheung Sha Wan Road, Kowloon","22.3368013,114.1486814",+852 2745 7088,"9:00 – 17:00,9:00 – 13:00,Closed","ATM_CENTRE,ATM_RMB,EXCHANGE,RMB,INVESTMENT_SERVICE,SELF_SERVICE,CHEQUE_DEPOSIT,CASH_DEPOSIT_DUAL_CURRENCY,ENRICH,WM_CENTRE,NOTES_PREORDER",
sham_shui_po_district,Sham Shui Po District,748,Dragon Centre Branch,"Shop 206A, Dragon Centre, 37K Yen Chow Street, Sham Shui Po, Kowloon","22.331107,114.159776",+852 2788 3238,"9:00 – 17:00,9:00 – 13:00,Closed","ATM_CENTRE,ATM_RMB,RMB,SECURITIES,INVESTMENT_SERVICE,CHEQUE_DEPOSIT,CASH_DEPOSIT_DUAL_CURRENCY,NOTES_PREORDER",
sham_shui_po_district,Sham Shui Po District,774,Sham Shui Po (On Ning Building) Branch,"147-149 Castle Peak Road, Sham Shui Po, Kowloon","22.3348414,114.1609465",+852 2708 3678,"9:00 – 17:00,9:00 – 13:00,Closed","ATM_CENTRE,ATM_RMB,RMB,SECURITIES,INVESTMENT_SERVICE,SAFE_DEPOSITBOX,CHEQUE_DEPOSIT,NOTES_PREORDER",
sham_shui_po_district,Sham Shui Po District,790,Yu Chau Street Branch,"42-46 Yu Chau Street, Sham Shui Po, Kowloon","22.326539,114.1658899",+852 2397 1123,"9:00 – 17:00,9:00 – 13:00,Closed","ATM_CENTRE,ATM_RMB,RMB,INVESTMENT_SERVICE,SELF_SERVICE,CHEQUE_DEPOSIT,CASH_DEPOSIT_DUAL_CURRENCY,NOTES_PREORDER",
sham_shui_po_district,Sham Shui Po District,869,Mei Foo Wealth Management Centre,"Shop 17-B, G/F, Mount Sterling Mall, Mei Foo Sun Chuen, Kowloon","22.338021,114.138414",+852 2742 8003,"9:00 – 17:00,9:00 – 13:00,Closed","ATM_CENTRE,ATM_RMB,INVESTMENT_SERVICE,WM_CENTRE,SELF_SERVICE,CHEQUE_DEPOSIT,CAPTIAL_INVEST,CASH_DEPOSIT_DUAL_CURRENCY",
sham_shui_po_district,Sham Shui Po District,898,Kowloon Plaza Branch,"Unit 1, Kowloon Plaza, 485 Castle Peak Road, Kowloon","22.3386997,114.1492228",+852 2370 8928,"9:00 – 17:00,9:00 – 13:00,Closed","ATM_CENTRE,ATM_RMB,EXCHANGE,RMB,INVESTMENT_SERVICE,SELF_SERVICE,CHEQUE_DEPOSIT,CASH_DEPOSIT_DUAL_CURRENCY,ENRICH,WM_CENTRE,METALS,NOTES_PREORDER",
sham_shui_po_district,Sham Shui Po District,923,Castle Peak Road (Cheung Sha Wan) Branch,"365-371 Castle Peak Road, Cheung Sha Wan, Kowloon","22.3388095,114.1558362",+852 2728 3311,"9:00 – 17:00,9:00 – 13:00,Closed","ATM_CENTRE,ATM_RMB,RMB,SECURITIES,INVESTMENT_SERVICE,SAFE_DEPOSITBOX,CHEQUE_DEPOSIT,CASH_DEPOSIT_DUAL_CURRENCY,ENRICH,WM_CENTRE,NOTES_PREORDER",
sham_shui_po_district,Sham Shui Po District,929,Stage 2 Mei Foo Sun Chuen Branch,"19 Glee Path, Mei Foo Sun Chuen, Kowloon","22.3363016,114.1398676",+852 2370 8382,"9:00 – 17:00,9:00 – 13:00,Closed","ATM_CENTRE,ATM_RMB,RMB,SECURITIES,INVESTMENT_SERVICE,SELF_SERVICE,CHEQUE_DEPOSIT,CASH_DEPOSIT_DUAL_CURRENCY,ENRICH,WM_CENTRE,METALS,NOTES_PREORDER",
wong_tai_sin_district,Wong Tai Sin District,384,Choi Wan Estate Branch,"Shop Nos. A317 and A318, 3/F, Choi Wan Shopping Centre Phase II, No. 45 Clear Water Bay Road, Ngau Chi Wan, Kowloon","22.333367,114.215024",+852 2754 5911,"9:00 – 17:00,9:00 – 13:00,Closed","ATM_CENTRE,ATM_RMB,RMB,SECURITIES,SELF_SERVICE,CHEQUE_DEPOSIT,CASH_DEPOSIT_DUAL_CURRENCY,NOTES_PREORDER,INVESTMENT_SERVICE",
wong_tai_sin_district,Wong Tai Sin District,567,Wong Tai Sin Branch,"Shop G13, Wong Tai Sin Plaza, Wong Tai Sin, Kowloon (with Voice Navigation ATM Service)","22.341416,114.194194",+852 2327 8147,"9:00 – 17:00,9:00 – 13:00,Closed","ATM_CENTRE,ATM_RMB,RMB,INVESTMENT_SERVICE,SELF_SERVICE,CHEQUE_DEPOSIT,CASH_DEPOSIT_DUAL_CURRENCY,METALS,NOTES_PREORDER,ENRICH",
wong_tai_sin_district,Wong Tai Sin District,646,Choi Hung Road Branch,"58-68 Choi Hung Road, San Po Kong, Kowloon","22.335549,114.19436",+852 2927 6111,"9:00 – 17:00,9:00 – 13:00,Closed","ATM_CENTRE,ATM_RMB,RMB,SECURITIES,INVESTMENT_SERVICE,SAFE_DEPOSITBOX,SELF_SERVICE,CHEQUE_DEPOSIT,CASH_DEPOSIT_DUAL_CURRENCY,NOTES_PREORDER",
wong_tai_sin_district,Wong Tai Sin District,649,Yuk Wah Street Branch,"46-48 Yuk Wah Street, Tsz Wan Shan, Kowloon","22.3471564,114.2015015",+852 2927 6655,"9:00 – 17:00,9:00 – 13:00,Closed","ATM_CENTRE,ATM_RMB,RMB,SECURITIES,INVESTMENT_SERVICE,SAFE_DEPOSITBOX,SELF_SERVICE,CHEQUE_DEPOSIT,CASH_DEPOSIT_DUAL_CURRENCY,NOTES_PREORDER,EXCHANGE",
wong_tai_sin_district,Wong Tai Sin District,692,Tai Yau Street Branch,"35 Tai Yau Street, San Po Kong, Kowloon","22.3358068,114.197051",+852 2328 0087,"9:00 – 17:00,9:00 – 13:00,Closed","ATM_CENTRE,ATM_RMB,EXCHANGE,RMB,INVESTMENT_SERVICE,SELF_SERVICE,CHEQUE_DEPOSIT,CAPTIAL_INVEST,CASH_DEPOSIT_DUAL_CURRENCY,ENRICH,NOTES_PREORDER",
wong_tai_sin_district,Wong Tai Sin District,710,Lok Fu Branch,"Shop G204, G/F, Lok Fu Place, 198 Junction Road, Kowloon","22.338456,114.186917",+852 2337 0271,"9:00 – 17:00,9:00 – 13:00,Closed","ATM_CENTRE,ATM_RMB,RMB,ENRICH,INVESTMENT_SERVICE,SAFE_DEPOSITBOX,NOTES_PREORDER",
wong_tai_sin_district,Wong Tai Sin District,734,Chuk Yuen Estate Branch,"Shop S1, Chuk Yuen Shopping Centre, Chuk Yuen South Estate, Kowloon","22.3451755,114.1930406",+852 2325 5261,"9:00 – 17:00,9:00 – 13:00,Closed","ATM_CENTRE,ATM_RMB,RMB,SECURITIES,SAFE_DEPOSITBOX,SELF_SERVICE,CHEQUE_DEPOSIT,CASH_DEPOSIT_DUAL_CURRENCY,NOTES_PREORDER",
wong_tai_sin_district,Wong Tai Sin District,758,Choi Hung Branch,"19 Clear Water Bay Road, Ngau Chi Wan, Kowloon","22.3342186,114.2088761",+852 2327 0271,"9:00 – 17:00,9:00 – 13:00,Closed","ATM_CENTRE,ATM_RMB,EXCHANGE,RMB,SECURITIES,INVESTMENT_SERVICE,SAFE_DEPOSITBOX,ENRICH,WM_CENTRE,NOTES_PREORDER",
wong_tai_sin_district,Wong Tai Sin District,813,Diamond Hill Branch,"G107 Plaza Hollywood, Diamond Hill, Kowloon","22.3399475,114.2029331",+852 2955 5088,"9:00 – 17:00,9:00 – 13:00,Closed","ATM_CENTRE,ATM_RMB,RMB,ENRICH,INVESTMENT_SERVICE,SELF_SERVICE,CHEQUE_DEPOSIT,CASH_DEPOSIT_DUAL_CURRENCY,NOTES_PREORDER",
wong_tai_sin_district,Wong Tai Sin District,863,Tseuk Luk Street Wealth Management Centre,"86 Tseuk Luk Street, San Po Kong, Kowloon","22.3354081,114.1972792",+852 2326 2883,"9:00 – 17:00,9:00 – 13:00,Closed","ATM_CENTRE,ATM_RMB,INVESTMENT_SERVICE,SELF_SERVICE,CHEQUE_DEPOSIT,CASH_DEPOSIT_DUAL_CURRENCY,WM_CENTRE",
kwun_tong_district,Kwun Tong District,582,Sau Mau Ping Branch,"Shop 214, Sau Mau Ping Shopping Centre, Sau Mau Ping, Kowloon","22.319718,114.231833",+852 2772 0028,"9:00 – 17:00,9:00 – 13:00,Closed","ATM_CENTRE,ATM_RMB,RMB,SECURITIES,SELF_SERVICE,CHEQUE_DEPOSIT,CASH_DEPOSIT_DUAL_CURRENCY,NOTES_PREORDER,INVESTMENT_SERVICE",
kwun_tong_district,Kwun Tong District,601,Kwun Tong Plaza Branch,"G1 Kwun Tong Plaza, 68 Hoi Yuen Road, Kwun Tong, Kowloon (with Voice Navigation ATM Service)","22.3114142,114.2259328",+852 2342 4295,"9:00 – 17:00,9:00 – 13:00,Closed","ATM_CENTRE,ATM_RMB,RMB,INVESTMENT_SERVICE,SAFE_DEPOSITBOX,SELF_SERVICE,CHEQUE_DEPOSIT,CASH_DEPOSIT_DUAL_CURRENCY,ENRICH,WM_CENTRE,NOTES_PREORDER,EXCHANGE",
kwun_tong_district,Kwun Tong District,651,177 Ngau Tau Kok Road Branch,"177 Ngau Tau Kok Road, Ngau Tau Kok, Kowloon","22.322378,114.216852",+852 2927 4321,"9:00 – 17:00,9:00 – 13:00,Closed","ATM_CENTRE,ATM_RMB,RMB,SECURITIES,METALS,NOTES_PREORDER,ENRICH",
kwun_tong_district,Kwun Tong District,708,26 Fu Yan Street Branch,"26-32 Fu Yan Street, Kwun Tong, Kowloon","22.3153835,114.2241094",+852 2342 5262,"9:00 – 17:00,9:00 – 13:00,Closed","ATM_CENTRE,ATM_RMB,RMB,SECURITIES,INVESTMENT_SERVICE,SELF_SERVICE,CHEQUE_DEPOSIT,CASH_DEPOSIT_DUAL_CURRENCY,NOTES_PREORDER,ENRICH",
kwun_tong_district,Kwun Tong District,726,169 Ngau Tau Kok Road Branch,"169 Ngau Tau Kok Road, Ngau Tau Kok, Kowloon","22.3234497,114.2162683",+852 2750 7311,"9:00 – 17:00,9:00 – 13:00,Closed","ATM_CENTRE,ATM_RMB,RMB,INVESTMENT_SERVICE,SELF_SERVICE,CHEQUE_DEPOSIT,CASH_DEPOSIT_DUAL_CURRENCY,WM_CENTRE,NOTES_PREORDER",
kwun_tong_district,Kwun Tong District,735,Telford Plaza Branch,"Shop Unit P2-P7, Telford Plaza, No.33 Wai Yip Street, Kowloon Bay, Kowloon","22.323876,114.212698",+852 2796 1551,"9:00 – 17:00,9:00 – 13:00,Closed","ATM_CENTRE,ATM_RMB,EXCHANGE,RMB,SECURITIES,INVESTMENT_SERVICE,SELF_SERVICE,CHEQUE_DEPOSIT,CASH_DEPOSIT_DUAL_CURRENCY,ENRICH,NOTES_PREORDER,CAPTIAL_INVEST,WM_CENTRE",
kwun_tong_district,Kwun Tong District,741,Tsui Ping Estate Branch,"Shop 116, 2/F Shopping Circuit, Tsui Ping Estate, Kwun Tong, Kowloon","22.314777,114.229027",+852 2345 3238,"9:00 – 17:00,9:00 – 13:00,Closed","ATM_CENTRE,ATM_RMB,RMB,SECURITIES,SELF_SERVICE,CHEQUE_DEPOSIT,CASH_DEPOSIT_DUAL_CURRENCY,NOTES_PREORDER,INVESTMENT_SERVICE",
kwun_tong_district,Kwun Tong District,753,Hip Wo Street Branch,"195-197 Hip Wo Street, Kwun Tong, Kowloon","22.3172156,114.2266442",+852 2345 0102,"9:00 – 17:00,9:00 – 13:00,Closed","ATM_CENTRE,ATM_RMB,RMB,SECURITIES,NOTES_PREORDER,INVESTMENT_SERVICE",
kwun_tong_district,Kwun Tong District,785,Yau Tong Branch,"Shop G1-G27, Ka Fu Arcade, Yau Tong Centre, Kowloon","22.2950082,114.2390001",+852 2349 9191,"9:00 – 17:00,9:00 – 13:00,Closed","ATM_CENTRE,ATM_RMB,RMB,INVESTMENT_SERVICE,CHEQUE_DEPOSIT,ENRICH,NOTES_PREORDER",
kwun_tong_district,Kwun Tong District,815,Lam Tin Branch,"Shop 12, 49 Kai Tin Road, Lam Tin, Kowloon","22.3085751,114.2343209",+852 2347 1456,"9:00 – 17:00,9:00 – 13:00,Closed","ATM_CENTRE,ATM_RMB,RMB,SECURITIES,INVESTMENT_SERVICE,SAFE_DEPOSITBOX,SELF_SERVICE,CHEQUE_DEPOSIT,ENRICH,CASH_DEPOSIT_DUAL_CURRENCY,WM_CENTRE,METALS,NOTES_PREORDER",
kwun_tong_district,Kwun Tong District,866,Kowloon Bay Branch,"Shop 2, Telford House, 16 Wang Hoi Road, Kowloon Bay, Kowloon","22.322733,114.2109092",+852 2759 9339,"9:00 – 17:00,9:00 – 13:00,Closed","ATM_CENTRE,ATM_RMB,RMB,INVESTMENT_SERVICE,SELF_SERVICE,CHEQUE_DEPOSIT,CASH_DEPOSIT_DUAL_CURRENCY,ENRICH,WM_CENTRE,NOTES_PREORDER",
kwun_tong_district,Kwun Tong District,887,Hoi Yuen Road Branch,"55 Hoi Yuen Road, Kwun Tong, Kowloon","22.310686,114.2248",+852 2763 2127,"9:00 – 17:00,9:00 – 13:00,Closed","ATM_CENTRE,ATM_RMB,EXCHANGE,RMB,INVESTMENT_SERVICE,SELF_SERVICE,CHEQUE_DEPOSIT,CAPTIAL_INVEST,ENRICH,CASH_DEPOSIT_DUAL_CURRENCY,NOTES_PREORDER,WM_CENTRE,METALS",
kwun_tong_district,Kwun Tong District,928,Ngau Tau Kok Road (Kwun Tong) Branch,"327 Ngau Tau Kok Road, Kwun Tong, Kowloon","22.3149123,114.2222592",+852 2389 3301,"9:00 – 17:00,9:00 – 13:00,Closed","EXCHANGE,RMB,CHEQUE_DEPOSIT,METALS,NOTES_PREORDER,INVESTMENT_SERVICE,ENRICH",
kwun_tong_district,Kwun Tong District,,Kowloon East Commercial Centre,address,"22.322950,114.211094",phone_no,"9:00 – 17:00,Closed,Closed",services,
kwai_tsing_district,Kwai Tsing District,356,Kwai Chung Road Branch,"1009 Kwai Chung Road, Kwai Chung, New Territories","22.3682492,114.1338268",+852 2424 3021,"9:00 – 17:00,9:00 – 13:00,Closed","ATM_CENTRE,ATM_RMB,RMB,INVESTMENT_SERVICE,CHEQUE_DEPOSIT,NOTES_PREORDER",
kwai_tsing_district,Kwai Tsing District,358,Sheung Kwai Chung Branch,"7-11 Shek Yi Road, Sheung Kwai Chung, New Territories","22.368389,114.1395255",+852 2480 6161,"9:00 – 17:00,9:00 – 13:00,Closed","ATM_CENTRE,ATM_RMB,RMB,INVESTMENT_SERVICE,SAFE_DEPOSITBOX,SELF_SERVICE,CHEQUE_DEPOSIT,CASH_DEPOSIT_DUAL_CURRENCY,WM_CENTRE,NOTES_PREORDER,ENRICH",
kwai_tsing_district,Kwai Tsing District,361,Ha Kwai Chung Branch,"192-194 Hing Fong Road, Kwai Chung, New Territories","22.3592102,114.1277388",+852 2424 9823,"9:00 – 17:00,9:00 – 13:00,Closed","ATM_CENTRE,ATM_RMB,RMB,SAFE_DEPOSITBOX,SELF_SERVICE,CHEQUE_DEPOSIT,INVESTMENT_SERVICE,CASH_DEPOSIT_DUAL_CURRENCY,NOTES_PREORDER,ENRICH",
kwai_tsing_district,Kwai Tsing District,376,Cheung Hong Estate Commercial Centre Branch,"2 G/F, Commercial Centre, Cheung Hong Estate, Tsing Yi, New Territories","22.348817,114.105992",+852 2497 0325,"9:00 – 17:00,9:00 – 13:00,Closed","ATM_CENTRE,ATM_RMB,RMB,SECURITIES,SAFE_DEPOSITBOX,CHEQUE_DEPOSIT,ENRICH,NOTES_PREORDER",
kwai_tsing_district,Kwai Tsing District,563,Lei Muk Shue Branch,"Shop 22, Lei Muk Shue Shopping Centre, Kwai Chung, New Territories","22.3785699,114.1362328",+852 2428 5731,"9:00 – 17:00,9:00 – 13:00,Closed","ATM_CENTRE,RMB,SECURITIES,SELF_SERVICE,CHEQUE_DEPOSIT,CASH_DEPOSIT_DUAL_CURRENCY,NOTES_PREORDER,INVESTMENT_SERVICE",
kwai_tsing_district,Kwai Tsing District,665,Kwai Chung Plaza Branch,"A18-20, G/F Kwai Chung Plaza, 7-11 Kwai Foo Road, Kwai Chung, NT","22.3583576,114.1280579",+852 2920 2468,"9:00 – 17:00,9:00 – 13:00,Closed","ATM_CENTRE,ATM_RMB,EXCHANGE,RMB,SECURITIES,INVESTMENT_SERVICE,SAFE_DEPOSITBOX,SELF_SERVICE,CHEQUE_DEPOSIT,CASH_DEPOSIT_DUAL_CURRENCY,ENRICH,METALS,NOTES_PREORDER",
kwai_tsing_district,Kwai Tsing District,739,Cheung Fat Estate Branch,"Shop 317, Cheung Fat Shopping Centre, Tsing Yi Island, New Territories","22.362473,114.103329",+852 2433 1689,"9:00 – 17:00,9:00 – 13:00,Closed","ATM_CENTRE,ATM_RMB,RMB,SECURITIES,INVESTMENT_SERVICE,SELF_SERVICE,CHEQUE_DEPOSIT,CASH_DEPOSIT_DUAL_CURRENCY,NOTES_PREORDER,ENRICH",
kwai_tsing_district,Kwai Tsing District,742,Metroplaza Branch,"Shop 260-265, Metroplaza, 223 Hing Fong Road, Kwai Chung, New Territories","22.357828,114.126907",+852 2420 2686,"9:00 – 17:00,9:00 – 13:00,Closed","ATM_CENTRE,ATM_RMB,RMB,INVESTMENT_SERVICE,SELF_SERVICE,CHEQUE_DEPOSIT,CAPTIAL_INVEST,CASH_DEPOSIT_DUAL_CURRENCY,WM_CENTRE,NOTES_PREORDER,ENRICH",
kwai_tsing_district,Kwai Tsing District,802,Kwai Cheong Road Branch,"40 Kwai Cheong Road, Kwai Chung, New Territories","22.3643975,114.1326785",+852 2480 3311,"9:00 – 17:00,9:00 – 13:00,Closed","ATM_CENTRE,ATM_RMB,RMB,INVESTMENT_SERVICE,SAFE_DEPOSITBOX,SELF_SERVICE,CHEQUE_DEPOSIT,CASH_DEPOSIT_DUAL_CURRENCY,NOTES_PREORDER",
kwai_tsing_district,Kwai Tsing District,830,Maritime Square Branch,"Shop 115, Maritime Square, Tsing Yi Island, New Territories","22.358476,114.106812",+852 2436 9298,"9:00 – 17:00,9:00 – 13:00,Closed","ATM_CENTRE,ATM_RMB,EXCHANGE,RMB,ENRICH,INVESTMENT_SERVICE,SELF_SERVICE,CHEQUE_DEPOSIT,CASH_DEPOSIT_DUAL_CURRENCY,WM_CENTRE,NOTES_PREORDER,CAPTIAL_INVEST",
kwai_tsing_district,Kwai Tsing District,,New Territories West Commercial Centre,address,"22.3579134,114.12667120000003",phone_no,"9:00 – 17:00,Closed,Closed",services,
tsuen_wan_district,Tsuen Wan District,355,Tsuen Wan Branch,"297-299 Sha Tsui Road, Tsuen Wan, New Territories","22.3692165,114.1176854",+852 2411 1321,"9:00 – 17:00,9:00 – 13:00,Closed","ATM_CENTRE,ATM_RMB,EXCHANGE,RMB,INVESTMENT_SERVICE,SELF_SERVICE,CHEQUE_DEPOSIT,CAPTIAL_INVEST,CASH_DEPOSIT_DUAL_CURRENCY,ENRICH,WM_CENTRE,NOTES_PREORDER",
tsuen_wan_district,Tsuen Wan District,375,Texaco Road Branch,"Shop A112,  East Asia Gardens, 36 Texaco Road, Tsuen Wan, NT","22.3684658,114.1222013",+852 2414 4287,"9:00 – 17:00,9:00 – 13:00,Closed","ATM_CENTRE,ATM_RMB,RMB,SECURITIES,INVESTMENT_SERVICE,SELF_SERVICE,CHEQUE_DEPOSIT,CASH_DEPOSIT_DUAL_CURRENCY,WM_CENTRE,NOTES_PREORDER,SAFE_DEPOSITBOX,ENRICH",
tsuen_wan_district,Tsuen Wan District,580,Sham Tseng Branch,"Shop G1 & G2, Rhine Garden, Sham Tseng, New Territories","22.3677526,114.0606357",+852 2491 0038,"9:00 – 17:00,9:00 – 13:00,Closed","ATM_CENTRE,ATM_RMB,RMB,INVESTMENT_SERVICE,SAFE_DEPOSITBOX,SELF_SERVICE,CHEQUE_DEPOSIT,CASH_DEPOSIT_DUAL_CURRENCY,NOTES_PREORDER",
tsuen_wan_district,Tsuen Wan District,602,Clague Garden Branch,"Shop 1-3, Commercial Complex, Clague Gdn Est, 24 Hoi Shing Rd, Tsuen Wan, NT","22.3702519,114.1111231",+852 2412 2202,"9:00 – 17:00,9:00 – 13:00,Closed","ATM_CENTRE,ATM_RMB,RMB,SECURITIES,SELF_SERVICE,CHEQUE_DEPOSIT,CASH_DEPOSIT_DUAL_CURRENCY,ENRICH,NOTES_PREORDER",
tsuen_wan_district,Tsuen Wan District,666,Citywalk Branch,"Shop 65 & 67-69, G/F, Citywalk, 1 Yeung Uk Road, Tsuen Wan, New Territories","22.37031511271987,114.11455437541008",+852 2920 3211,"9:00 – 17:00,9:00 – 13:00,Closed","ATM_CENTRE,ATM_RMB,RMB,INVESTMENT_SERVICE,SELF_SERVICE,CHEQUE_DEPOSIT,CASH_DEPOSIT_DUAL_CURRENCY,ENRICH,WM_CENTRE,NOTES_PREORDER",
tsuen_wan_district,Tsuen Wan District,880,Castle Peak Road (Tsuen Wan) Branch,"G/F-1/F, Sin Ching Building, 201-207 Castle Peak Road (Tsuen Wan), Tsuen Wan, New Territories","22.372516410313647,114.11761812865734",+852 2416 6577,"9:00 – 17:00,9:00 – 13:00,Closed","ATM_CENTRE,ATM_RMB,EXCHANGE,RMB,INVESTMENT_SERVICE,SAFE_DEPOSITBOX,SELF_SERVICE,CHEQUE_DEPOSIT,CAPTIAL_INVEST,CASH_DEPOSIT_DUAL_CURRENCY,SECURITIES,METALS,NOTES_PREORDER,ENRICH",
tsuen_wan_district,Tsuen Wan District,948,Castle Peak Road (Tsuen Wan) Wealth Management Centre,"Shop 1, G/F, Cheong Yiu Mansion, 167 Castle Peak Road (Tsuen Wan),Tsuen Wan, New Territories","22.371696,114.118722",+852 2406 9932,"9:00 – 17:00,9:00 – 13:00,Closed","WM_CENTRE,SAFE_DEPOSITBOX,SELF_SERVICE,INVESTMENT_SERVICE",
tuen_mun_district,Tuen Mun District,382,Kin Wing Street Branch,"24-30 Kin Wing Street, Tuen Mun, New Territories","22.3965773,113.9696676",+852 2465 2212,"9:00 – 17:00,9:00 – 13:00,Closed","ATM_CENTRE,ATM_RMB,RMB,SELF_SERVICE,CHEQUE_DEPOSIT,CASH_DEPOSIT_DUAL_CURRENCY,NOTES_PREORDER,INVESTMENT_SERVICE",
tuen_mun_district,Tuen Mun District,569,Tuen Mun Fa Yuen Branch,"Shop G & H, 6 Tsing Hoi Circuit, Tuen Mun, New Territories","22.3886896,113.9786085",+852 2458 1033,"9:00 – 17:00,9:00 – 13:00,Closed","ATM_CENTRE,ATM_RMB,RMB,INVESTMENT_SERVICE,SAFE_DEPOSITBOX,SELF_SERVICE,CASH_DEPOSIT_DUAL_CURRENCY,ENRICH,NOTES_PREORDER",
tuen_mun_district,Tuen Mun District,593,Tuen Mun San Hui Branch,"G13-G14 Eldo Court, Heung Sze Wui Road, Tuen Mun, New Territories","22.3987014,113.9752953",+852 2457 3501,"9:00 – 17:00,9:00 – 13:00,Closed","ATM_CENTRE,ATM_RMB,EXCHANGE,RMB,SECURITIES,INVESTMENT_SERVICE,SAFE_DEPOSITBOX,SELF_SERVICE,CHEQUE_DEPOSIT,CASH_DEPOSIT_DUAL_CURRENCY,WM_CENTRE,METALS,ENRICH,NOTES_PREORDER",
tuen_mun_district,Tuen Mun District,610,Venice Gardens Branch,"Shop13-15, G/F Venice Gardens, Leung Tak Street, Tuen Mun, NT","22.4076974,113.9686237",+852 2455 1288,"9:00 – 17:00,9:00 – 13:00,Closed","ATM_CENTRE,ATM_RMB,RMB,CHEQUE_DEPOSIT,NOTES_PREORDER,ENRICH,INVESTMENT_SERVICE",
tuen_mun_district,Tuen Mun District,661,Butterfly Estate Branch,"Shop Nos. R156 - R164, Level 1, Butterfly Plaza, Tuen Mun, New Territories","22.3748377,113.9627741",+852 2920 5188,"9:00 – 17:00,9:00 – 13:00,Closed","ATM_CENTRE,ATM_RMB,RMB,SECURITIES,INVESTMENT_SERVICE,SAFE_DEPOSITBOX,SELF_SERVICE,CHEQUE_DEPOSIT,CASH_DEPOSIT_DUAL_CURRENCY,NOTES_PREORDER,EXCHANGE",
tuen_mun_district,Tuen Mun District,794,Leung King Estate Branch,"Shop No. L221 and L222, Level 2, Leung King Plaza, Leung King Estate, 31 Tin King Road, Tuen Mun, New Territories","22.406358,113.962805",+852 2463 3855,"9:00 – 17:00,9:00 – 13:00,Closed","ATM_CENTRE,ATM_RMB,RMB,SECURITIES,SELF_SERVICE,SAFE_DEPOSITBOX,CHEQUE_DEPOSIT,CASH_DEPOSIT_DUAL_CURRENCY,NOTES_PREORDER,ENRICH,INVESTMENT_SERVICE",
tuen_mun_district,Tuen Mun District,860,Tuen Mun Wealth Management Centre,"Shop 5, Level 1, North Wing, Trend Plaza, Tuen Mun,  New Territories","22.393254,113.975940",+852 2404 9777,"9:00 – 17:00,9:00 – 13:00,Closed","SECURITIES,INVESTMENT_SERVICE,CAPTIAL_INVEST,WM_CENTRE",
tuen_mun_district,Tuen Mun District,889,Tuen Mun Town Plaza Branch,"Shop 2, Tuen Mun Town Plaza phase II, Tuen Mun, New Territories","22.393804,113.976071",+852 2450 8877,"9:00 – 17:00,9:00 – 13:00,Closed","ATM_CENTRE,ATM_RMB,EXCHANGE,RMB,INVESTMENT_SERVICE,SAFE_DEPOSITBOX,SELF_SERVICE,CHEQUE_DEPOSIT,CASH_DEPOSIT_DUAL_CURRENCY,ENRICH,NOTES_PREORDER,CAPTIAL_INVEST",
yuen_long_district,Yuen Long District,573,Kau Yuk Road Branch,"18-24 Kau Yuk Road, Yuen Long, New Territories","22.4430091,114.0279004",+852 2473 2833,"9:00 – 17:00,9:00 – 13:00,Closed","ATM_CENTRE,ATM_RMB,RMB,SECURITIES,INVESTMENT_SERVICE,SAFE_DEPOSITBOX,SELF_SERVICE,CHEQUE_DEPOSIT,CASH_DEPOSIT_DUAL_CURRENCY,NOTES_PREORDER,ENRICH",
yuen_long_district,Yuen Long District,588,Yuen Long Branch,"102-108 Castle Peak Road, Yuen Long, New Territories","22.444271,114.029011",+852 2474 2211,"9:00 – 17:00,9:00 – 13:00,Closed","ATM_CENTRE,ATM_RMB,RMB,INVESTMENT_SERVICE,SAFE_DEPOSITBOX,CHEQUE_DEPOSIT,CAPTIAL_INVEST,CASH_DEPOSIT_DUAL_CURRENCY,NOTES_PREORDER,EXCHANGE,ENRICH",
yuen_long_district,Yuen Long District,607,Tin Shui Estate Branch,"Shop No.G30, Tin Shui Shopping Centre, Tin Shui Wai, New Territories","22.45620496857529,113.99847507476807",+852 2445 8728,"9:00 – 17:00,9:00 – 13:00,Closed","ATM_CENTRE,ATM_RMB,RMB,SECURITIES,SELF_SERVICE,CHEQUE_DEPOSIT,CASH_DEPOSIT_DUAL_CURRENCY,NOTES_PREORDER,INVESTMENT_SERVICE",
yuen_long_district,Yuen Long District,618,Tai Tong Road Branch,"Shop A135, 1/F Hop Yick Plaza, 23 Tai Tong Road, Yuen Long, NT","22.4432189,114.0289251",+852 2479 2113,"9:00 – 17:00,9:00 – 13:00,Closed","ATM_CENTRE,ATM_RMB,RMB,SECURITIES,SELF_SERVICE,CHEQUE_DEPOSIT,CASH_DEPOSIT_DUAL_CURRENCY,INVESTMENT_SERVICE,NOTES_PREORDER,ENRICH",
yuen_long_district,Yuen Long District,797,Kingswood Villas Branch,"A189 Kingswood Richly Plaza, Tin Shui Wai, New Territories","22.4514605,114.0019525",+852 2448 3313,"9:00 – 17:00,9:00 – 13:00,Closed","ATM_CENTRE,ATM_RMB,RMB,INVESTMENT_SERVICE,SELF_SERVICE,CASH_DEPOSIT_DUAL_CURRENCY,NOTES_PREORDER,ENRICH",
yuen_long_district,Yuen Long District,831,Fortune Kingswood Branch,"Shop G65, G/F, Ph 1 Fortune Kingswood, 18 Tin Yan Road, Tin Shui Wai, NT.","22.458037,114.002785",+852 2616 4233,"9:00 – 17:00,9:00 – 13:00,Closed","ATM_CENTRE,ATM_RMB,RMB,SECURITIES,INVESTMENT_SERVICE,SELF_SERVICE,CHEQUE_DEPOSIT,CAPTIAL_INVEST,CASH_DEPOSIT_DUAL_CURRENCY,ENRICH,NOTES_PREORDER,EXCHANGE",
yuen_long_district,Yuen Long District,872,Castle Peak Road (Yuen Long) Branch,"162 Castle Peak Road, Yuen Long, New Territories","22.4443773,114.0270782",+852 2476 2193,"9:00 – 17:00,9:00 – 13:00,Closed","ATM_CENTRE,ATM_RMB,RMB,INVESTMENT_SERVICE,SAFE_DEPOSITBOX,SELF_SERVICE,CHEQUE_DEPOSIT,CASH_DEPOSIT_DUAL_CURRENCY,WM_CENTRE,NOTES_PREORDER,ENRICH",
yuen_long_district,Yuen Long District,924,Yuen Long (Hang Fat Mansion) Branch,"8-18 Castle Peak Road, Yuen Long, New Territories","22.4443379,114.0317002",+852 2475 3777,"9:00 – 17:00,9:00 – 13:00,Closed","ATM_CENTRE,ATM_RMB,EXCHANGE,RMB,SECURITIES,INVESTMENT_SERVICE,SAFE_DEPOSITBOX,SELF_SERVICE,CHEQUE_DEPOSIT,CASH_DEPOSIT_DUAL_CURRENCY,METALS,NOTES_PREORDER,ENRICH",
north_district,North District,584,Flora Plaza Branch,"Shop 28, Flora Plaza, 88 Pak Wo Road, Fanling, New Territories","22.485459,114.141243",+852 2675 6683,"9:00 – 17:00,9:00 – 13:00,Closed","ATM_CENTRE,ATM_RMB,RMB,SAFE_DEPOSITBOX,SELF_SERVICE,CHEQUE_DEPOSIT,CASH_DEPOSIT_DUAL_CURRENCY,INVESTMENT_SERVICE,NOTES_PREORDER,EXCHANGE",
north_district,North District,590,Sheung Shui Branch,"61 San  Fung Avenue, Sheung Shui, New Territories","22.504783,114.1271462",+852 2671 0155,"9:00 – 17:00,9:00 – 13:00,Closed","ATM_CENTRE,ATM_RMB,EXCHANGE,RMB,INVESTMENT_SERVICE,SAFE_DEPOSITBOX,SELF_SERVICE,CHEQUE_DEPOSIT,CAPTIAL_INVEST,CASH_DEPOSIT_DUAL_CURRENCY,ENRICH,WM_CENTRE,METALS,NOTES_PREORDER",
north_district,North District,598,Choi Yuen Plaza Branch,"Shop R9-10, 3/F, Choi Yuen Plaza, Sheung Shui, New Territories","22.500825,114.126296",+852 2671 6783,"9:00 – 17:00,9:00 – 13:00,Closed","ATM_CENTRE,ATM_RMB,RMB,INVESTMENT_SERVICE,SELF_SERVICE,CHEQUE_DEPOSIT,CASH_DEPOSIT_DUAL_CURRENCY,NOTES_PREORDER,EXCHANGE,ENRICH",
north_district,North District,615,Sha Tau Kok Branch,"Block 16-18, Sha Tau Kok Chuen, Sha Tau Kok, New Territories","22.5464161,114.2241331",+852 2674 4011,"9:00 – 17:00,9:00 – 13:00,Closed","ATM_CENTRE,ATM_RMB,RMB,SECURITIES,SAFE_DEPOSITBOX,NOTES_PREORDER",
north_district,North District,616,Luen Wo Market Branch,"17-19 Wo Fung Street, Luen Wo Market, Fanling, New Territories","22.4985767,114.1423926",+852 2675 5113,"9:00 – 17:00,9:00 – 13:00,Closed","ATM_CENTRE,ATM_RMB,EXCHANGE,RMB,INVESTMENT_SERVICE,SELF_SERVICE,CHEQUE_DEPOSIT,CASH_DEPOSIT_DUAL_CURRENCY,ENRICH,WM_CENTRE,METALS,NOTES_PREORDER",
north_district,North District,731,Fanling Centre Branch,"Shop 2D-E & H, Fanling Centre, Fanling, New Territories","22.4912966,114.1414928",+852 2669 7899,"9:00 – 17:00,9:00 – 13:00,Closed","ATM_CENTRE,ATM_RMB,RMB,SAFE_DEPOSITBOX,SELF_SERVICE,CHEQUE_DEPOSIT,CASH_DEPOSIT_DUAL_CURRENCY,ENRICH,INVESTMENT_SERVICE,NOTES_PREORDER,EXCHANGE",
north_district,North District,807,Sheung Shui Centre Branch,"Shop 1007-1009, Level 1, Sheung Shui Centre, Sheung Shui,New Territories","22.501096,114.129489",+852 2670 3131,"9:00 – 17:00,9:00 – 13:00,Closed","ATM_CENTRE,ATM_RMB,RMB,SELF_SERVICE,CHEQUE_DEPOSIT,CASH_DEPOSIT_DUAL_CURRENCY,INVESTMENT_SERVICE,NOTES_PREORDER",
north_district,North District,943,Luen Wo Market Branch Safe Box Service Centre,"Shop B, 10-16 Luen Shing Street, Luen Wo  Market, Fanling, New Territories","22.498650148728977,114.1423212736845",+852 2683 1662,"9:00 – 17:00,9:00 – 13:00,Closed","ATM_CENTRE,ATM_RMB,SECURITIES,SAFE_DEPOSITBOX,CHEQUE_DEPOSIT,CASH_DEPOSIT_DUAL_CURRENCY,SELF_SERVICE",
north_district,North District,945,Sheung Shui Branch Securities Services Centre,"136 San Fung Avenue, Sheung Shui, New Territories","22.5033043,114.1266542",+852 2672 3738,"9:00 – 17:00,9:00 – 13:00,Closed","ATM_CENTRE,ATM_RMB,SECURITIES,SELF_SERVICE,CHEQUE_DEPOSIT,CASH_DEPOSIT_DUAL_CURRENCY,INVESTMENT_SERVICE",
tai_po_district,Tai Po District,364,Kwong Fuk Road Branch,"40-50 Kwong Fuk Road, Tai Po Market, New Territories","22.4490089,114.166092",+852 2658 2268,"9:00 – 17:00,9:00 – 13:00,Closed","ATM_CENTRE,ATM_RMB,RMB,CHEQUE_DEPOSIT,NOTES_PREORDER,ENRICH",
tai_po_district,Tai Po District,571,On Chee Road Branch,"Shop 10 Level 1, Jade Plaza, 3 On Chee Road, Tai Po, New Territories","22.4528903,114.167976",+852 2665 1966,"9:00 – 17:00,9:00 – 13:00,Closed","ATM_CENTRE,ATM_RMB,RMB,SECURITIES,INVESTMENT_SERVICE,SAFE_DEPOSITBOX,CHEQUE_DEPOSIT,NOTES_PREORDER",
tai_po_district,Tai Po District,585,Fu Shin Estate Branch,"Shop G11, Fu Shin Shopping Centre, Tai Po, New Territories","22.453706,114.174439",+852 2663 2788,"9:00 – 17:00,9:00 – 13:00,Closed","ATM_CENTRE,ATM_RMB,RMB,SAFE_DEPOSITBOX,CHEQUE_DEPOSIT,NOTES_PREORDER",
tai_po_district,Tai Po District,591,Tai Po Branch,"68-70 Po Heung Street, Tai Po Market, New Territories","22.4479003,114.1662729",+852 2657 2121,"9:00 – 17:00,9:00 – 13:00,Closed","ATM_CENTRE,ATM_RMB,EXCHANGE,RMB,SECURITIES,INVESTMENT_SERVICE,SAFE_DEPOSITBOX,SELF_SERVICE,CHEQUE_DEPOSIT,CAPTIAL_INVEST,CASH_DEPOSIT_DUAL_CURRENCY,ENRICH,WM_CENTRE,METALS,NOTES_PREORDER",
tai_po_district,Tai Po District,600,Tai Po Plaza Branch,"Unit 4, Level 1 Tai Po Plaza, 1 On Tai Road, Tai Po, New Territories","22.452502,114.1706796",+852 2665 5890,"9:00 – 17:00,9:00 – 13:00,Closed","ATM_CENTRE,ATM_RMB,RMB,INVESTMENT_SERVICE,SAFE_DEPOSITBOX,SELF_SERVICE,CHEQUE_DEPOSIT,CASH_DEPOSIT_DUAL_CURRENCY,NOTES_PREORDER,ENRICH,EXCHANGE,METALS",
tai_po_district,Tai Po District,796,Fu Heng Estate Branch,"Shop 1-2, Fu Heng Shopping Centre, Tai Po, New Territories","22.458164,114.172146",+852 2661 6278,"9:00 – 17:00,9:00 – 13:00,Closed","ATM_CENTRE,ATM_RMB,RMB,SECURITIES,SELF_SERVICE,CHEQUE_DEPOSIT,CASH_DEPOSIT_DUAL_CURRENCY,NOTES_PREORDER,INVESTMENT_SERVICE",
tai_po_district,Tai Po District,,New Territories East Commercial Centre,address,"22.447900,114.166272",phone_no,"9:00 – 17:00,Closed,Closed",services,
sha_tin_district,Shatin District,385,Lung Hang Estate Branch,"103 Lung Hang Commercial Centre, Shatin, NT","22.368046,114.179612",+852 2605 8618,"9:00 – 17:00,9:00 – 13:00,Closed","ATM_CENTRE,ATM_RMB,RMB,SECURITIES,INVESTMENT_SERVICE,SAFE_DEPOSITBOX,SELF_SERVICE,CHEQUE_DEPOSIT,CASH_DEPOSIT_DUAL_CURRENCY,NOTES_PREORDER",
sha_tin_district,Shatin District,391,Heng On Estate Branch,"Shop 203, Commercial Centre, Heng On Estate, Ma On Shan, New Territories","22.416753,114.227721",+852 2642 0111,"9:00 – 17:00,9:00 – 13:00,Closed","ATM_CENTRE,ATM_RMB,RMB,NOTES_PREORDER",
sha_tin_district,Shatin District,565,City One Sha Tin Branch,"Shop Nos. 24-25, G/F, Fortune City One Plus, No.2 Ngan Shing Street, Shatin, New Territories","22.387196,114.202735",+852 2648 8083,"9:00 – 17:00,9:00 – 13:00,Closed","ATM_CENTRE,ATM_RMB,RMB,INVESTMENT_SERVICE,SAFE_DEPOSITBOX,SELF_SERVICE,CHEQUE_DEPOSIT,CASH_DEPOSIT_DUAL_CURRENCY,WM_CENTRE,METALS,NOTES_PREORDER,ENRICH,EXCHANGE",
sha_tin_district,Shatin District,608,Tai Wai Branch,"74-76 Tai Wai Road, Shatin, NT","22.3744989,114.1781553",+852 2699 9523,"9:00 – 17:00,9:00 – 13:00,Closed","ATM_CENTRE,ATM_RMB,EXCHANGE,RMB,CHEQUE_DEPOSIT,NOTES_PREORDER,INVESTMENT_SERVICE,ENRICH,METALS,SELF_SERVICE,CASH_DEPOSIT_DUAL_CURRENCY",
sha_tin_district,Shatin District,685,Lek Yuen Branch,"No 1, Fook Hoi House, Lek Yuen Estate, Shatin, NT","22.3853785,114.19196",+852 2605 3021,"9:00 – 17:00,9:00 – 13:00,Closed","ATM_CENTRE,ATM_RMB,RMB,SECURITIES,SAFE_DEPOSITBOX,NOTES_PREORDER",
sha_tin_district,Shatin District,688,Fo Tan Branch,"No 2, 1/F Shatin Galleria, 18-24 Shan Mei Street, Fo Tan, New Territories","22.397241,114.193418",+852 2691 7193,"9:00 – 17:00,9:00 – 13:00,Closed","ATM_CENTRE,ATM_RMB,RMB,INVESTMENT_SERVICE,SAFE_DEPOSITBOX,SELF_SERVICE,CHEQUE_DEPOSIT,CASH_DEPOSIT_DUAL_CURRENCY,WM_CENTRE,NOTES_PREORDER",
sha_tin_district,Shatin District,695,New Town Plaza Branch,"Shop 608, Level 6 Phase One, New Town Plaza, Shatin, NT","22.381852,114.187907",+852 2606 6163,"9:00 – 17:00,9:00 – 13:00,Closed","ATM_CENTRE,ATM_RMB,RMB,ENRICH,INVESTMENT_SERVICE,SELF_SERVICE,CHEQUE_DEPOSIT,CAPTIAL_INVEST,CASH_DEPOSIT_DUAL_CURRENCY,WM_CENTRE,NOTES_PREORDER,EXCHANGE",
sha_tin_district,Shatin District,722,Sha Kok Estate Branch,"Shop 39, Sha Kok Shopping Centre, Sha Kok Est, Shatin, NT","22.37779,114.194261",+852 2648 0302,"9:00 – 17:00,9:00 – 13:00,Closed","ATM_CENTRE,ATM_RMB,RMB,SECURITIES,SAFE_DEPOSITBOX,SELF_SERVICE,CHEQUE_DEPOSIT,CASH_DEPOSIT_DUAL_CURRENCY,NOTES_PREORDER",
sha_tin_district,Shatin District,805,Ma On Shan Plaza Branch,"Shop 2103, Level 2, Ma On Shan Plaza, Sai Sha Road, Ma On Shan, New Territories","22.4257441,114.2307066",+852 2631 0063,"9:00 – 17:00,9:00 – 13:00,Closed","ATM_CENTRE,ATM_RMB,RMB,SECURITIES,SAFE_DEPOSITBOX,SELF_SERVICE,CHEQUE_DEPOSIT,CAPTIAL_INVEST,CASH_DEPOSIT_DUAL_CURRENCY,WM_CENTRE,METALS,NOTES_PREORDER,INVESTMENT_SERVICE,EXCHANGE,ENRICH",
sha_tin_district,Shatin District,867,Sha Tin Wealth Management Centre,"Shop 18, L1, Shatin Plaza, Shatin, NT","22.3827104,114.1890836",+852 2688 7668,"9:00 – 17:00,9:00 – 13:00,Closed","INVESTMENT_SERVICE,CAPTIAL_INVEST,WM_CENTRE",
sha_tin_district,Shatin District,885,Sha Tin Branch,"Shop 20, Level 1, Lucky Plaza, 1-15 Wang Pok Street, Shatin, New Territories","22.3833255,114.1898673",+852 2605 6556,"9:00 – 17:00,9:00 – 13:00,Closed","ATM_CENTRE,ATM_RMB,EXCHANGE,RMB,INVESTMENT_SERVICE,SELF_SERVICE,CHEQUE_DEPOSIT,CASH_DEPOSIT_DUAL_CURRENCY,METALS,NOTES_PREORDER,CAPTIAL_INVEST,ENRICH",
sha_tin_district,Shatin District,960,Tai Wai Wealth Management Centre,"37-47 Tai Wai Road, Shatin, New Territories","22.3753545,114.1773595",+852 2929 4288,"9:00 – 17:00,9:00 – 13:00,Closed","WM_CENTRE,INVESTMENT_SERVICE,ATM_CENTRE,ATM_RMB,CASH_DEPOSIT_DUAL_CURRENCY",
sai_kung_district,Sai Kung District,617,Sai Kung Branch,"56 & 58, Sai Kung Town Centre, 22-40 Fuk Man Road, Sai Kung, N.T.","22.382761,114.27169",+852 2792 1465,"9:00 – 17:00,9:00 – 13:00,Closed","ATM_CENTRE,ATM_RMB,EXCHANGE,RMB,INVESTMENT_SERVICE,SELF_SERVICE,SAFE_DEPOSITBOX,CASH_DEPOSIT_DUAL_CURRENCY,CHEQUE_DEPOSIT,WM_CENTRE,METALS,NOTES_PREORDER,ENRICH",
sai_kung_district,Sai Kung District,738,Metro City Branch,"Shop 209, Level 2, Metro City Phase 1, Tseung Kwan O, New Territories","22.321438,114.257577",+852 2701 4962,"9:00 – 17:00,9:00 – 13:00,Closed","ATM_CENTRE,ATM_RMB,RMB,SECURITIES,INVESTMENT_SERVICE,SELF_SERVICE,CHEQUE_DEPOSIT,CASH_DEPOSIT_DUAL_CURRENCY,WM_CENTRE,NOTES_PREORDER,ENRICH,EXCHANGE",
sai_kung_district,Sai Kung District,792,Tseung Kwan O Plaza Branch,"Shop 112-125, Level 1, Tseung Kwan O Plaza, Tseung Kwan O, NT","22.307886,114.2624365",+852 2702 0282,"9:00 – 17:00,9:00 – 13:00,Closed","ATM_CENTRE,ATM_RMB,RMB,SAFE_DEPOSITBOX,SELF_SERVICE,CHEQUE_DEPOSIT,CASH_DEPOSIT_DUAL_CURRENCY,INVESTMENT_SERVICE,NOTES_PREORDER,ENRICH,EXCHANGE",
sai_kung_district,Sai Kung District,814,East Point City Branch,"Shop 101, East Point City, Tseung Kwan O, New Territories","22.316054,114.265478",+852 2628 7238,"9:00 – 17:00,9:00 – 13:00,Closed","ATM_CENTRE,ATM_RMB,EXCHANGE,RMB,INVESTMENT_SERVICE,SELF_SERVICE,CHEQUE_DEPOSIT,CAPTIAL_INVEST,CASH_DEPOSIT_DUAL_CURRENCY,ENRICH,WM_CENTRE,METALS,NOTES_PREORDER",
sai_kung_district,Sai Kung District,896,HKUST Branch,"The HKUST, Clear Water Bay Rd, NT","22.337443,114.263498",+852 2358 2345,"9:00 – 17:00,Closed,Closed","ATM_CENTRE,ATM_RMB,RMB,SELF_SERVICE,NOTES_PREORDER,CASH_DEPOSIT_DUAL_CURRENCY",
sai_kung_district,Sai Kung District,946,Hau Tak Estate Branch Securities Services Centre,"Shop W015-016, G/F, West Wing TKO Gateway, Hau Tak Estate, Tseung Kwan O, New Territories","22.317229,114.266286",+852 2703 5749,"9:00 – 17:00,9:00 – 13:00,Closed","ATM_CENTRE,SECURITIES,SAFE_DEPOSITBOX,CHEQUE_DEPOSIT",
sai_kung_district,Sai Kung District,821,Tseung Kwan O (The Grandiose) Branch,"Shop G59-60, G/F, Popcorn, Tseung Kwan O Town, New Territories","22.308558,114.261564",+852 2160 8729,"9:00 – 17:00,9:00 – 13:00,Closed","ATM_CENTRE,ATM_RMB,CASH_DEPOSIT_DUAL_CURRENCY,CHEQUE_DEPOSIT,ENRICH,EXCHANGE,INVESTMENT_SERVICE,NOTES_PREORDER,RMB,SELF_SERVICE",
island_district,Outlying Island District,707,Cheung Chau Branch,"53-55 Tai Sun Street, Cheung Chau, New Territories","22.2067038,114.0285933",+852 2981 0021,"9:00 – 17:00,9:00 – 13:00,Closed","ATM_CENTRE,ATM_RMB,SAFE_DEPOSITBOX",
island_district,Outlying Island District,800,Hong Kong International Airport Branch,"Unit 7T075, Passenger Terminal Bldg, Hong Kong International Airport (with RMB cash withdrawal)","22.314425,113.934751",+852 2326 1883,"9:00 – 17:00,9:00 – 13:00,Closed","ATM_CENTRE,INVESTMENT_SERVICE,SELF_SERVICE,CHEQUE_DEPOSIT,CAPTIAL_INVEST,CASH_DEPOSIT_DUAL_CURRENCY,ENRICH,WM_CENTRE,NOTES_PREORDER",
island_district,Outlying Island District,949,Discovery Bay Banking Services Centre,"Shop G28, G/F, Block C, DB Plaza, Discovery Bay City, Lantau Island, New Territories","22.29554,114.0166",+852 2160 8585,"11:00 – 19:00,12:00 – 17:00,Closed","BOCHK_ISERVICE,ATM_CENTRE,SELF_SERVICE,CASH_DEPOSIT_DUAL_CURRENCY,CHEQUE_DEPOSIT,INVESTMENT_SERVICE",